Name,Street,House_number,Zip_code,City,Tel,Email,Website
1. Mädchenhaus Kassel 1992 Verein zur Unterstützung feministischer Mädchenarbeit e.V.,Annastr.,9,34119,Kassel,0561 71785,maedchenhauskassel@web.de,http://www.maedchenhauskassel.de/
<< aide >> Verein der Förderer Behinderter und Freundeder Max-Kirmsse Schule e.V. Idstein,Kirmsseweg,10-12,65510,Idstein,06126 23282,info@maxkirmsseschule.de,http://www.aide-mks.de
Advent-Kindergarten e.V.,Heimstättenweg,97 B,64295,Darmstadt,06151 319518,adventkiga-darmstadt@gmx.net,http://www.advent-kindergarten.de/
ADVENT-WOHLFAHRTSWERK e.V. Landesstelle Hessen.,Heidelberger Landstr.,24,64297,Darmstadt,06151 9182210,aww.mrv@adventisten.de,http://www.adventisten-mrv.de
Afrika Projekt e.V. - Verein für Entwicklungszusammenarbeit,Postfach,60 05 14,60335,Frankfurt am Main,0163 7745589,info@afrika-projekt.org,http://www.afrika-projekt.org/
AG Freizeit für Behinderte und Nichtbehinderte e.V.,Am Erlengraben,12 a,35037,Marburg,06421 1696760,info@ag-freizeit.de,http://www.ag-freizeit.de/
Agnes-Geering-Heim e.V.,Hohemarkstr.,166,61440,Oberursel,06171 21511,lothar.m.wachter@t-online.de,http://www.agnes-geering-heim.de/
AGOGI e.V.,Wöllstädter Str.,18,60385,Frankfurt,069 94506686,mail@agogi-frankfurt.org,www.agogi-frankfurt.org
AIDS-AUFKLÄRUNG e.V.,Große Seestr.,31,60486,Frankfurt am Main,069 762933,info@aids-aufklaerung.de,
Aids-Hilfe Darmstadt e.V.,Elisabethenstr.,45,64283,Darmstadt,06151 28073,info@darmstadt.aidshilfe.de,
AIDS-Hilfe Frankfurt e.V.,Friedberger Anlage,24,60316,Frankfurt,069 4058680,info@frankfurt.aidshilfe.de,http://www.frankfurt-aidshilfe.de/
AIDS-Hilfe Fulda e.V.,Friedrichstr.,4,36037,Fulda,0661 77011,info@aidshilfe-fulda.de,
AIDS-Hilfe Gießen e.V.,Diezstr.,8,35390,Gießen,0641 390226,AH-GI@t-online.de,
AIDS-Hilfe Hanau und Main-Kinzig-Kreis e.V.,Alfred-Delp-Str.,10,63450,Hanau,06181 31000,info@aidshilfe-hanau.de,https://www.aidshilfe-hanau.de/
AIDS-Hilfe Hessen e.V.,Böttgerstr.,22,60389,Frankfurt,069 590711,aids-hilfe-hessen@t-online.de,http://www.aids-hilfe-hessen.de/
AIDS-Hilfe Kassel e.V.,Motzstr.,1,34117,Kassel,0561 97975910,info@kassel.aidshilfe.de,http://www.aids-hilfe-kassel.de/
AIDS-Hilfe Marburg e.V.,Bahnhofstr.,27,35037,Marburg,06421 64523,mail@aids-hilfe-marburg.de,http://marburg.aidshilfe.de/
AIDS-Hilfe Offenbach e.V.,Frankfurter Str.,48,63065,Offenbach,069 883688,info@offenbach.aidshilfe.de,http://www.offenbach.aidshilfe.de/
AIDS-Hilfe Wiesbaden e.V.,Karl-Glässingstr.,5,65183,Wiesbaden,0611 302436,ahwiesbaden@t-online.de,http://www.aidshilfe-wiesbaden.de/
Akademische Bildungsplattform e.V.,Kurt-Schumacher-Str.,5,34117,Kassel,0561 890202,info@abplattform.de,www.abplattform.de
AKGG Stiftung,Treppenstr.,4,34117,Kassel,0561 81644401,s.link@akgg.de,
Aktion - Perspektiven für junge Menschen und Familien e.V.,Schanzenstr.,18,35390,Gießen,0641 71020,info@aktion-verein.org,http://www.aktion-verein.org/
"Aktion für Behinderte, Verein für Behinderte und ihre Familien e.V.",c/o Frau Ilona Langer Weiherbachstr.,28,35708,Haiger,02775 7139,impressum@aktionfuerbehinderte.de,http://www.aktionfuerbehinderte.de
Aktionsgemeinschaft Soziale Arbeit e.V. (AGS),Offenthaler Str.,75,63128,Dietzenbach,06074 6964059,info@ags-ev.com,http://www.ags-ev.com/
Aktives Leben im Alter gGmbH,An der Mühle,2-4,35466,Rabenau,06407 40388-0,info@altenpflege-gruenberg.de,http://www.altenpflege-gruenberg.de/
Aktivspielplatz Wilde Wiese e.V.,Theodor-Heuss-Ring,63,63128,Dietzenbach,,info@kinder-und-jugendwelten.de,www.kinder-und-jugendwelten.de/
Albert-Schweitzer-Kinderdorf Hessen e.V. - Zentrale Dienste -,Am Pedro-Jung-Park,1,63450,Hanau,06181 27060,info@ask-hessen.de,http://www.ask-hessen.de
Allgemeiner Almosenkasten Stiftung des öffentlichen Rechts,Berliner Str.,33-35,60311,Frankfurt,069 2123230,almosenkasten.stiftung@stadt-frankfurt.de,http://www.frankfurter-stiftungen.de
Allgemeiner Rettungsverband Frankfurt e.V.,Griesheimer Stadtweg,62,65933,Frankfurt,069 3803300,frankfurt@arv.net,http://www.arv.net/
Allianz für Assistenzhunde - Pfotenpiloten e.V.,Lauterbacher Str.,14,60386,Frankfurt am Main,069 67700947,admin@assistenzhundallianz.org,http://www.assistenzhundallianz.org
Alltagsdrogenberatung - Rödermark e.V.,Heitkämperstr.,11,63322,Rödermark,06074 96725,ADBS-Roedermark@gmx.de,
Altkönig-Stift eG,Feldbergstr.,13-15,61476,Kronberg,06173 310,info@altkoenig-stift.de,http://www.altkoenig-stift.de
Alzheimer Gesellschaft Main-Kinzig e.V.,Schloßbergstr.,7,61130,Nidderau-Windecken,06462 7289,gregor@alzheimer-mkk.de,http://www.alzheimer-mkk.de
Alzheimer Gesellschaft Mittelhessen e.V.,Geiersberg,15,35578,Wetzlar,06441 43742,info@alzheimer-gesellschaft-mittelhessen.de,http://www.alzheimer-gesellschaft-mittelhessen.de/
Alzheimer Gesellschaft Wiesbaden e.V.,Rheingaustr.,114,65203,Wiesbaden,0611 6029881,info@alzheimer-wiesbaden.de,http://www.alzheimer-wiesbaden.de
Ambulante Dienste Nordhessen gemeinnützige GmbH,Heckerswiesenstr.,4,34121,Kassel,0561 928829-0,adn@lichtenau-ev.de,
Ambulante Kranken- und Sozialpflege e.V.,Prinz-Christians-Weg,7,64287,Darmstadt,06151 41980,ambulante-darmstadt@t-online.de,
Angehörigengruppe Mittelhessen e.V. c/o Zentrum für Psychiatrie der Uni-Klinik,Am Steg,22,35392,Gießen,0151 20777730 AB/Rückruf,kontakt@angehoerige-mittelhessen.de,http://www.angehoerige-mittelhessen.de/
Angekommen Wiesbaden e.V.,Sooderstr.,47,65193,Wiesbaden,,finanzen@angekommen-wiesbaden.de,www.angekommen-wiesbaden.de
Anna-Freud-Institut Frankfurt e.V.,Myliusstraße,20,60323,Frankfurt am Main,069 721445,sekretariat@ikjp.de,http://www.ikjp.de/
Arbeit und Bildung e.V.,Krummbogen,3,35039,Marburg,06421 96360,info@arbeit-und-bildung.de,http://www.arbeit-und-bildung.de/
Arbeiter-Samariter-Bund Gesellschaft für soziale Einrichtungen Hessen mbH,Grüner Weg,16-18,34117,Kassel,0561 208660 0,info@asb-gse-hessen.de,http://www.asb-gse-hessen.de
Arbeiter-Samariter-Bund Landesverband Hessen e. V.,Feuerwehrstr.,5,60435,Frankfurt,069 54840440,mail@asb-hessen.de,http://www.asb-hessen.de
Arbeiter-Samariter-Bund Lehrerkooperative Bildung und Kommunikation gemeinnützige Gesellschaft mbH,Kasseler Str.,1a,60486,Frankfurt am Main,069 9706360,info@lehrerkooperative.de,http://www.lehrerkooperative.de
Arbeiter-Samariter-Bund Wohnen und Pflege Bad Emstal GmbH (ASB Wohnen und Pflege Bad Emstal GmbH),Tränkeweg,15,34308,Bad Emstal,05624 9988,info-emstal@asb-wohnen-pflege.de,http://www.asb-wohnen-pflege.de
Arbeiter-Samariter-Bund Wohnen und Pflege Karben GmbH (ASB Wohnen und Pflege Karben GmbH),Ramonville-Str.,27,61184,Karben,06039 93740,info-karben@asb-wohnen-pflege.de,http://www.asb-wohnen-pflege.de
Arbeiter-Samariter-Bund Wohnen und Pflege Lohfelden GmbH (ASB Wohnen und Pflege Lohfelden GmbH),Quellenweg,60,34253,Lohfelden,0561 511890,info@asb-wohnen-pflege.de,http://www.asb-wohnen-pflege.de
Arbeitsgemeinschaft gegen Suchtgefahren e.V.,Pfingstbrunnenstr.,3,65824,Schwalbach,06196 23059,hans-anton.kilb@arcor.de,
Arbeitsgemeinschaft Schelmengraben e.V.,Hans-Böckler-Str.,5-7,65199,Wiesbaden,0611 4114710,info@ag-schelmengraben.de,
Arbeitsgemeinschaft Spina bifida und Hydrocephalus  e.V. Selbsthilfegruppe Darmstadt,Weimarer Str.,13,64807,Dieburg,06071 25701,asbh-darmstadt@gmx.de,http://www.asbh-darmstadt.de/
Arbeitsgemeischaft zur Förderung der Gehörlosen in Wetzlar und Lahn- Dill-Kreis e.V.,Hainstr.,8a,35576,Wetzlar,,argewetzlar@t-online.de,
Arbeitskreis Alkohol in der Alltagswelt A.i.d.A. e.V.,Am Jungfernborn,4,61130,Nidderau,06187 908423,info@aida-selbsthilfe.de,http://www.aida-selbsthilfe.de
Arbeitskreis Gemeindenahe Gesundheitsversorgung (AKGG) e.V.,Rotenburgerstr.,17,34212,Melsungen,05661 705649,malte.kummer@akgg.de,http://www.akgg.de/akgg_e_v.php
Arbeitskreis gemeindenahe Gesundheitsversorgung -AKGG- GmbH,Weißenburgstr.,7,34117,Kassel,0561 816440,verwaltung@akgg.de,http://www.akgg.de/
Arbeitskreis Jugend und Gesellschaft e.V. - Jugendberatungsstellen und Wohngemeinschaften im Landkreis Bergstrasse -,Darmstädter Str.,151,64625,Bensheim-Auerbach,06251 73970,team@maedchenwohngruppe.de,
Arbeitskreis Soziale Brennpunkte e.V.,Ginseldorfer Weg,50,35039,Marburg,06421 690020,mail@AKSB-Marburg.de,http://www.AKSB-Marburg.de
Arbeitsloseninitiative im Lahn-Dill-Kreis - WALI e. V.,Bahnhofstr.,11,35576,Wetzlar,06441 44048,info@wali-wetzlar.de,
arbeitsoffen - Verein zur Förderung der Zusammenarbeit e.V.,Wingertstr.,22,60316,Frankfurt,,arbeitsoffen@douma.de,
Arbeitstherapeutischer Verein e.V.,Bosestr.,9c,34121,Kassel,0561 932770,atv@werkhof-am-park.de,http://www.werkhof-am-park.de
Ärztliche Suchthilfe Fulda gemeinnützige GmbH,Heinrichstr.,60,36043,Fulda,0661 3801713,psb@suchthilfe-fulda.de,http://www.suchthilfe-fulda.de
ASB Erasmus Frankfurter Stadtschule Grundschule gGmbH,Sonnemannstraße,9-11,60314,Frankfurt am Main,069-907436 40,info@erasmus-schule.eu,http://www.erasmus-schule.eu
ATB Autismus Therapie- und Beratungszentrum gemeinnützige GmbH,Kölnische Str.,43,34117,Kassel,0561 33430,dallmann@autismus-kassel.de,
Atemzeit e.V.,Kuhweg,6,61200,Wölfersheim,06036 432890,info@atemzeit.org,www.atemzeit.org
Atmaseva e.V.,Vogelsbergstraße,14,34131,Kassel,0561 98123307,info@atmaseva.de,http://www.atmaseva.de
AurA - Sozialeinrichtung gemeinnützige Gesellschaft zur Förderung Aktiven und rüstigen Alterns mbH,Cappeler Str.,72,35039,Marburg/Lahn,06421 1750700,d.loock-wirth@aura-ggmbh.de,http://www.aura-ggmbh.de
Aurora e.V.,Postfach,1105,35001,Marburg,06421 166640,info@aurora-verein.de,http://www.aurora-verein.de
Ausblick e.V. Förderverein der JVA Weiterstadt,Carl-Orff-Ring,26,63110,Rodgau,06106 666510,vorsitzender@ausblickweiterstadt.de,http://www.ausblickweiterstadt.de/
"autismus Mittelhessen e.V. - Regionalverband zur Förderung, Beratung und Begleitung von Menschen mit Autismus",Postfach,1169,35416,Buseck,06441 3813528,info@autismus-mittelhessen.de,http://www.autismus-mittelhessen.de
Autismus Nordhessen e.V. Regionalverband zur Förderung von Menschen mit Autismus,Werrastraße,5,34582,Borken,05682 2819,Horst.Wischek@t-online.de,
Autismus Rhein-Main e.V. Regionalverband zur Förderung vonMenschen mit Autismus,Sonnemannstraße,3,60314,Frankfurt am Main,069 7894661,info@autismus-rhein-main.de,http://www.autismus-rhein-main.de
AVICENNA - Institut für Bildungs- und Gesundheitswesen e.V.,Adalbertstr.,26,60486,Frankfurt,069 71712874,info@avicenna-ev.de,www.avicenna-integration.de
BAFF-Frauen-Kooperation gemeinnützige GmbH,Alsfelder Str.,9,64289,Darmstadt,06151 669720,m.otte@baff-darmstadt.de,http://www.baff-darmstadt.de
"BASIS e.V. Beratung, Arbeit, Jugend und Kultur",Heddernheimer Landstr.,145,60439,Frankfurt,069 623451,u.gottschalk@basis-ev.eu,http://www.basis-ev.eu/
Begegnungszentrum Selbsthilfegruppen Main-Kinzig e.V.,Breslauer Str.,19,63450,Hanau,06181 255500,team@selbsthilfekontaktstelle.de,http://www.selbsthilfekontaktstelle.de/
Behinderten-Werk Main-Kinzig e.V.,Vor der Kaserne,6,63571,Gelnhausen,06051 92180,info@bwmk.de,http://www.bwmk.de
Behindertenhilfe in Stadt und Kreis Offenbach e.V.,Ludwigstraße,136,63067,Offenbach,069 809096912,j.grosser@behindertenhilfe-offenbach.de,http://www.behindertenhilfe-offenbach.de
BENGI e.V. - Interkultureller Lern- und Begegnungsort für Frauen,Die Freiheit,14,34117,Kassel,0561 50958,bengi-ks@t-online.de,http://www.bengi-ks.de
berami berufliche Integration e.V.,Nibelungenplatz,3,60318,Frankfurt,069 9130100,kontakt@berami.de,http://www.berami.de/
Beratungsstelle Kassel für Bewußte Elternschaft e.V.,Holländische Str.,198,34127,Kassel,0561 895377,info@bbe-kassel.de,http://www.bbe-kassel.de
Betreutes Wohnen Darmstadt e.V,Grafenstraße,31,64283,Darmstadt,06151 3972777,bwd@bwdev.de,
Betreuungsverein e.V. im VdK Lahn-Dill,Hohe Str.,700 Nr. 6,35745,Herborn,02772 9230955,betreuungsverein.lahn-dill@vdk.de,http://www.vdk.de/betreuungsverein-hessen
Betreuungsverein Friedberg e.V.,Kleine Klostergasse,16,61169,Friedberg,06031 18633,info@betreuungsverein-friedberg.de,http://www.betreuungsverein-friedberg.de
Betreuungsverein Herzbergschule Roth e.V.,Gartenstr.,10,63571,Gelnhausen-Roth,06051/5184,Herzbergschule-Betreuungsverein@web.de,
Betreuungsverein Main-Kinzig e.V.,Am Altenzentrum,,63517,Rodenbach,06184 54715,info@betreuungsverein-mk.de,http://www.betreuungsverein-mk.de/
Bewegen - Spielen - Lernen Verein für psychomotorische Entwicklungsförderung e.V.,Frankfurter Str.,92,34121,Kassel,0561 26265,bsl@bsl-ks.de,http://www.bsl-ks.de/
Bewohnernetzwerk für Soziale Fragen e. V.,Damaschkeweg,96,35039,Marburg,O6421 44122,mail@bsf-richtsberg.de,http://www.bsf-richtsberg.de/
Bezirksverein der Kehlkopflosen e.V.,Feldbergstr.,75,65779,Kelkheim,,w.lotz@gmx.net,http://www.kehlkopflose-frankfurt.de
Bezirksverein der Kehlkopflosen Osthessen e.V.,Am Bünberg,20,36179,Bebra,06622 1753,gmgustavus@t-online.de,
Bezirksverein der Kehlkopfoperierten Kassel-Nordhessen e.V. Mitglied im Bundesverband der Kehlkopfoperierten e...,Breslauer Str.,14,36110,Schlitz,06642 6870,,
BHZ Roßdorf Soziale Dienste gGmbH,Dieburger Str.,77,64380,Roßdorf,06154 69960,info@bhz-rossdorf.de,http://www.bhz-rossdorf.de
BIKU Bildung und Kultur gemeinnützige GmbH,Hanauer Landstr.,182 A,60314,Frankfurt am Main,069 94592084,edison@biku.eu,
Bildungs- und Begegnungsstätte Mütterzentrum e.V.,Gallasiniring,8,36043,Fulda,0661 8050,muetterzentrum-fulda@gmx.de,http://muetze-fulda.de/
Bildungsverein Kreidekreis e.V.,Agnes-Hueninger-Str.,12,36041,Fulda,0661 78450,bvkk@gmx.de,http://www.kreidekreis-fulda.de/
BILLABONG - Familienzentrum Riedberg e.V.,Friedrich-Dessauer-Str.,4-6,60438,Frankfurt am Main,069 98957795,info@billabong-family.de,http://www.billabong-family.de
Bio-Garten Flechtdorf GmbH,Am Stege,4,34497,Korbach,05631 50060,info@bio-garten-flechtdorf.de,http://www.bio-garten-flechtdorf.de
Biografie und Erinnerung e.V.,Völklinger Weg,23 A,60529,Frankfurt,,,www.biografiearbeit-frankfurt.com
Blinden- und Sehbehindertenbund in Hessen e.V. Landesgeschäftsstelle,Börsenstraße,14,60313,Frankfurt,069 1505966,info@bsbh.org,http://www.bsbh.org/
Borreliose und FSME Bund Deutschland e.V. Patientenorganisation Bundesverband,c/o Frau Jutta Hecker Postfach,1205,64834,Münster bei Dieburg,06071 497397,info@borreliose-bund.de,http://www.borreliose-bund.de
Brasilianische Fraueninitiative gegen Diskriminierung und Gewalt e.V. (IMBRADIVA),Adalbertstr.,36a,60486,Frankfurt,069 97264269,mail@imbradiva.org,http://www.imbradiva.org/
Brüder Grimm Bildungszentrum e.V.,Langstr,60,63450,Hanau,06181 12506,bruedergrimm.integrationskurse@gmail.com,
Buchenhof e.V. Wohnform für Menschen mit geistiger Behinderung,Winterkastener Weg,10,64678,Lindenfels-Kolmbach,06254 833,buchenhof@gmx.de,
Bundesverband der Migrantinnen in Deutschland e.V.,Franz-Werfel-Str.,37,60431,Frankfurt,0177 2757251,info@migrantinnen.net,http://www.migrantinnen.net
Bundesvereinigung der Eltern blinder und sehbehinderter Kinder e.V.,c/o Herrn Fred Brühmann Rohnsweg,13a,37085,Göttingen,0177 6197871,fred.bruehmann@bebsk.de,http://www.bebsk.de
Buntspechte Cappel e.V.,Im Grund,9,35043,Marburg,06421 45124,Vorstand@Buntspechte-Cappel.de,http://www.buntspechte-cappel.de
Bürger für Bürger e. V.,Hauptstr.,51,36355,Grebenhain,06644 962799,info@bfb-generationenhilfe. de,
Bürger- und Seniorenhilfe Heusenstamm e.V.,Kirchstr.,24,63150,Heusenstamm,06104 1711,sh.heusenstamm@t-online.de,
Bürger- und Seniorenhilfe Mühlheim e.V.,Goethestr.,35,63165,Mühlheim,06108 82052,buero@bshm.de,http://www.seniorenhilfe-muehlheim.de/
"Bürgerhilfe ""Sontraer Land"" e.V.",Niederstadt,32,36205,Sontra,05653 265657,bp@persch-die-kueche.de,http://www.buergerhilfe-sontra.de/
Bürgerhilfe Rodgau e.V.,Am Welschenfeld,6,63776,Mömbris,06029 1404,shinkel@gmx.de,http://www.buergerhilfe-rodgau.de/
Bürgerhilfe Sozialpsychiatrie Frankfurt am Main e.V.,Holbeinstraße,25-27,60596,Frankfurt,069 96201869,gst@bsf-frankfurt.de,http://www.bsf-frankfurt.de
Bürgerhilfe Wetter e.V.,Amönauer Str.,14,35083,Wetter,,info@buergerhilfe-wetter.de,www.buergerhilfe-wetter.de
Bürgerhospital und Clementine Kinderhospital gemeinnützige GmbH,Nibelungenallee,37-41,60318,Frankfurt am Main,069 1500 470,info@buergerhospital-ffm.de,http://www.buergerhospital-ffm.de
Bürgerinstitut e.V.,Oberlindau,20,60323,Frankfurt,069 9720170,becher@buergerinstitut.de,http://www.buergerinstitut-ffm.de/
Bürgerverein Soziales Erlensee e.V.,Hauptstr.,39,63526,Erlensee,06183 807835,buero@buergerverein-erlensee.d,http://www.buergerverein-erlensee.de
BVZ GmbH,Humboldtstr.,12,60318,Frankfurt,069 915010715,tom.wieland@bvz-frankfurt.de,www.bvz-frankfurt.de
Cafeteria Freiherr-vom-Stein Schule e. V.,Bergstr.,42-44,65817,Eppstein,06198 5926-0,cafta@gmx.net,
"CALLA, VEREIN zur FÖRDERUNG der LEBENSQUALITÄT von FRAUEN mit SUCHTPROBLEMEN e.V.",Mörfelder Landstr.,6-8,60598,Frankfurt,069 621254,info@calla-ev.de,http://www.calla-ev.de
CASA e.V. Centrum für aktivierende Stadtteilarbeit,Holzstr.,24,65197,Wiesbaden,0611 429356,info@casa-wiesbaden.de,http://www.casa-wiesbaden.de
CBF Darmstadt Club Behinderter und ihrer Freunde in Darmstadt und Umgebung e.V.,Pallaswiesenstr.,123 a,64293,Darmstadt,06151 81220,info@cbf-darmstadt.de,http://www.cbf-da.de/
CBF Hessen - LAG hessischer Clubs Behinderter und ihrer Freunde e.V. c/o CBF Dreieich,Pallaswiesenstraße,123a,64293,Darmstadt,06151 812224,kontakt@cbf-hessen.de,http://www.cbf-hessen.de
CF-Selbsthilfe Frankfurt e.V.,Philosophenweg,13,61350,Bad Homburg,06172 898121,thomas.steinbauer@cf-selbsthilfe.de,http://www.cf-selbsthilfe.de/
Christliches Sozialwerk Harreshausen e.V.,Am Obertor,40,64832,Babenhausen,06073 72860,info@cswh.de,http://www.cswh.de/
Christophorus-Schule Mühltal e.V.,Rheinstr.,46,64367,Mühltal,06151 55088,info@christophorus-schule-muehltal.de,http://www.christophorus-schule-muehltal.de/
Club Behinderte und ihre Freunde Dreieich e.V.,Maria-Hall-Str.,36,63303,Dreieich,06103 68159,cbf-dreieich@t-online.de,http://www.cbf-dreieich.de/
"Connecta, Das Frauennetzwerk e.V.",Bergweg,61,34125,Kassel,0561 15460,martin.barrierefrei@web.de,http://www.frauennetzwerk-connecta.de/
Cornelius-Helferich-Stiftung,Ulmenstr.,23,34117,Kassel,0561 784880,info@helferich-stiftung.de,http://www.cornelius-helferich-stiftung.de
Daheim Arbeitsgemeinschaft Ambulante Alten- und Krankenpflege e.V.,Alte Kasseler Str.,43,35039,Marburg,06421 681171,daheimmr@aol.com,
"DAKITS Dachverband freier Kindertages- einrichtungen in Krabbelgruppen, Kinderläden, Kindergärten, Horts und Spielkreisen e...",Motzstr.,4,34117,Kassel,0561 719378,info@Dakits.de,http://www.dakits.de/
Darmstädter Forum für psychoanalytische Heilpädagogik und Soziale Arbeit e.V.,Wilhelm-Leuschner-Str.,255,64347,Griesheim,06155 604212,geschaeftsstelle@darmstaedter-forum.de,
Darmstädter Pflege- und Sozialdienst e.V.,Hügelstr.,47,64283,Darmstadt,06151 177460,wolfgangfranz@dpsd.de,http://www.dpsd.de/
Das Deutsche Schülerstipendium Stiftungs- Gesellschaft mit beschränkter Haftung,Lehrer-Wirth-Str.,4,81829,München,089 9544526 20,info@rolandbergerstiftung.org,
Daumer Haus gGmbH,Kladower Damm,221 / Haus 24,14089,Berlin,030 36431373,info@daumer-haus.de,http://www.daumer-haus.de
DELPHIN Nachhilfe & Sprachkurse e.V.,Schwalbacher Str.,34,65183,Wiesbaden,0611 3603730,info@delphin-nachhilfe.de,www.delphin-nachhilfe.de
Demenz-Forum-Darmstadt e.V.,Heinheimer Straße,41,64289,Darmstadt,06151 967996,information@demenzforum-darmstadt.de,http://www.demenzforumdarmstadt.de/
der hof Niederursel e.V.,Alt Niederursel,51,60439,Frankfurt,069 95775639,hof-verein@der-hof.de,http://www.der-hof.de/
Der Pflegeverein e.V.,Borngasse,9,64319,Pfungstadt,06157 930122,joachim.pfeiffer@pflegeverein.de,http://www.pflegeverein.de/
"Deutsch-Israelischer Verein für Rehabilitation und soziale Eingliederung für Behinderte und von Behinderung bedrohte Menschen, Gießen e...",Grüninger Weg,26,35415,Pohlheim,06404 804240,info@deutsch-israelischer-verein.de,http://www.deutsch-israelischer-verein.de/
"Deutsch-Russisches Integrations- und Bildungswerk ""Spectrum""",Gagernstr.,48,60385,Frankfurt,069 49086727,etsarfin@aol.com,http://www.spectrum-ev.com
Deutsche Blindenstudienanstalt e.V. Bildungs- und Hilfsmittelzentrum für Blinde und Sehbehinderte,Am Schlag,8,35037,Marburg,06421 6060,info@blista.de,http://www.blista.de/
Deutsche Filmkünstlernothilfe,Murnaustr.,6,65189,Wiesbaden,0611 7789110,meister@spio-fsk.de,
Deutsche Gesellschaft für Muskelkranke e.V. Landesgruppe Hessen,Clemens-von-Brentano-Str.,9,65232,Taunusstein,,roland.mischke@dgm.org,http://www.dgm.org
"Deutsche Gesellschaft für soziale Psychiatrie, Landesverband Hessen e.V.",Merianstr.,8,64646,Heppenheim,06252 73348,const.gatterburg@gmail.com,http://www.dgsp-hessen.de
Deutsche Huntington-Hilfe Landesverband Hessen e.V.,Marburger Str.,63b,35043,Marburg,06055 933559,ThomasRauch62@gmx.de,
Deutsche ILCO Landesverband Hessen e.V.,Drosselweg,8,64646,Heppenheim,06251 72209,ilco-hessen-schroeter@t-online.de,
Deutsche Lebens-Rettungs-Gesellschaft Landesverband Hessen e.V.,Uferstr.,2a,65203,Wiesbaden,0611 65501,geschaeftsstelle@lv-hessen.dlrg.de,http://www.hessen.dlrg.de/
Deutsche Multiple Sklerose Gesellschaft Landesverband Hessen e.V.,Wittelsbacher Allee,86,60385,Frankfurt,069 4058980,dmsg@dmsg-hessen.de,http://www.dmsg-hessen.de
Deutsche Unfall- und Katastrophenopfer Hilfe e.V.,Birkenweg,3,63485,Bruchköbel,069 24246328,jmaspfuhl@aol.com,http://www.duk-hilfe.org/
"Deutsche Vereinigung Morbus Bechterew, Landesverband Hessen e.V.",c/o Herrn Franz-Josef Kaufhold Zum Sürendahl,17,59964,Medebach-Düdinghausen,05632 1369,dvmb-hessen@t-online.de,http://www.dvmb-hessen.de/
Deutscher Frauenbund für alkoholfreie Kultur Landesverband e.V.,Nieuwpoorter Straße,121,63110,Rodgau,06192 9776281,lv-hessen@deutscher-frauenbund.de,http://www.deutscher-frauenbund.de
Deutscher Kinderschutzbund Orts- und Kreisverband Gießen e.V.,Marburger Str.,54,35396,Gießen,0641 49550312,geschaeftsstelle@kinderschutzbund-giessen.de,http://www.kinderschutzbund-giessen.de
Deutscher Kinderschutzbund Ortsverband Kassel e.V.,Wolfhager Str.,170,34127,Kassel,0561 68226,vorstand@kinderschutzbund-kassel.de,http://www.kinderschutzbund-kassel.de/
Deutscher Kinderschutzbund Ortsverband Offenbach (Main) e.V.,Rathenaustr.,38,63067,Offenbach,069 86781239,dksb-offenbach@gmx.de,
Deutscher Kinderschutzbund Ortsverband Rödermark e.V.,Am Schellbusch,1,63322,Rödermark,06074 68966,dksb_roedermark@web.de,http://www.kinderschutzbund-rodgau-roedermark.de/
Deutscher Kinderschutzbund Ortsverband Westkreis Offenbach e.V.,Wiesenstr.,5,63225,Langen,06103 25543,info@kinderschutzbund-wko.de,http://www.kinderschutzbund-wko.de/
Deutscher Kinderschutzbund Ortsverband Wiesbaden e.V.,Kaiser-Friedrich-Ring,5,65185,Wiesbaden,0611 522846,info@kinderschutzbund-wi.de,http://www.kinderschutzbund-wi.de/
Deutscher Kinderschutzbund Regionalverband Rheingau e.V.,Winkeler Straße,46,65366,Geisenheim,06722 5515,dksb-rheingau@t-online.de,http://www.kinderschutzbund-rheingau.de/
Deutscher Kinderschutzbund (DKSB) Bezirksverband Frankfurt e.V.,Comeniusstr.,37,60389,Frankfurt,069 97090110,verwaltung@kinderschutzbund-frankfurt.de,http://www.kinderschutzbund-frankfurt.de/
Deutscher Kinderschutzbund (DKSB) Landesverband Hessen e.V.,Gebrüder-Lang-Str.,7,61169,Friedberg,06031 18733,info@kinderschutzbund-hessen.de,http://www.kinderschutzbund-hessen.de/
Deutscher Kinderschutzbund e.V. Bezirksverband Darmstadt,Holzhofallee,15,64295,Darmstadt,06151 36041-50,info@Kinderschutzbund-Darmstadt.de,http://www.kinderschutzbund-darmstadt.de
Deutscher Kinderschutzbund e.V. Ortsverband Frankenberg,Friedrich-Trost-Str.,4,35066,Frankenberg,06451 210065,kinderschutzbund-fkb@t-online.de,
Deutscher Kinderschutzbund e.V. Ortsverband Rodgau,Marburger Str.,4a,63110,Rodgau,06106 17079,vorstand-dksb-rodgau@gmx.de,
Deutscher Kinderschutzbund Kreisverband Lahn-Dill/Wetzlar e.V.,Niedergirmeser Weg,1,35576,Wetzlar,06441 33666,info@kinderschutzbund-wetzlar.de,http://www.kinderschutzbund-wetzlar.de/
Deutscher Kinderschutzbund Kreisverband Hochtaunus e.V.,Hindenburgring,44,61348,Bad Homburg,06172 20044,dksb.hochtaunus@t-online.de,http://www.dksb-hochtaunus.de/
Deutscher Kinderschutzbund Kreisverband Limburg-Weilburg e. V.,Badehausweg,1,65520,Bad Camberg,06434 4028716,kontakt@dksb-lm.de,http://www.dksb-lm.de
Deutscher Kinderschutzbund Orts- und Kreisverband Marburg-Biedenkopf e.V.,Universitätsstr.,29,35037,Marburg,06421 67157,info@kinderschutzbund-marburg.de,http://www.kinderschutzbund-marburg.de/
Deutscher Kinderschutzbund Ried e.V.,Pestalozziweg,1,64579,Gernsheim,06258 833766,vorstand@kinderschutzbund-ried.de,www.kinderschutzbund-ried.de
Deutscher Pflegeverband (DPV) e.V.,Mittelstr.,1,56564,Neuwied,02631 838822,info@dpv-online.de,http://www.dpv-online.de/
Deutscher Schwerhörigenbund Landesverband Hessen e.V.,Rothschildallee,16a,60389,Frankfurt am Main,069 45 40 36,dsblvhessen@t-online.de,http://www.paritaet.org/hessen/dsb
Deutscher Schwerhörigenbund Ortsverein Wiesbaden e.V.,Bleichstr.,16,65183,Wiesbaden,,,http://www.paritaet.org/hessen/dsb/
Deutscher Verein für Gesundheitspflege e.V. Landesstelle Hessen,Heidelberger Landstr.,24,64297,Darmstadt,06151 9182210,sekretariat@adventisten-mrv.de,
Deutsches Jugendherbergswerk Landesverband Hessen e.V.,Berner Str.,119,60437,Frankfurt,069 609130,info@djh-hessen.de,http://www.djh-hessen.de/
DGT Dienstleistungs-Gesellschaft Taunus mbH,Voltastr.,7,65795,Hattersheim,06190 935101,a.ahrens@dg-taunus.de,http://www.dg-taunus.de/
Diabetiker Hessen e.V.,Friedrich-Ebert-Str.,5,34613,Schwalmstadt,06691 24957,info@diabetiker-he.de,http://www.diabetiker-he.de
DIE BRÜCKE - Arbeitsgemeinschaft für Bildung und Beratung e.V.,Löherstr.,37,36037,Fulda,0661 73023,info@bruecke-fulda.de,
Die Brücke e.V. Verein für psychosoziale Hilfe im Kreis Hersfeld-Rotenburg,Untere Frauen Str.,17,36251,Bad Hersfeld,06621 509512,info@diebruecke-badhersfeld.de,http://www.diebruecke-badhersfeld.de
"die brücke, Bürgerselbsthilfe Steinbach (Taunus) e.V.",Hessenring,24,61449,Steinbach/Ts.,06171 981800,bruecke-steinbach@t-online.de,http://www.bruecke-steinbach.de
DIE FLECKENBÜHLER e. V.,Fleckenbühl,6,35091,Cölbe,06427 92210,info@diefleckenbuehler.de,http://www.diefleckenbuehler.de
Die Gaukler - hort am hof e.V.,Alt Niederursel,51,60439,Frankfurt am Main,069 5890916,gaukler@der-hof.de,http://www.diegauklerhortamhof.de/
Die Hilfe e.V.,Talstr.,18,65191,Wiesbaden,0611 1874139,info@die-hilfe-ev.de,www.die-hilfe-ev.de
Die kleinen Strolche in Flieden e.V. - Verein für kreative und soziale Kinderbetreuung e.V.,Bornweg,2,36103,Flieden,06655 9871580,diekleinenstrolche-flieden@gmx.de,http://www.die-kleinen-strolche-flieden.de
Die Kopiloten e.V.,Nora-Platiel-Str.,1,34127,Kassel,,info@diekopiloten.de,http://www.diekopiloten.de
Die Lebensgemeinschaft e.V. Vereinigung von Freunden und Angehörigen behinderter Menschen Sassen und Richthof,Hofgut Sassen,,36110,Schlitz,06642 8020,buero@lebensgemeinschaft.de,http://www.lebensgemeinschaft.de
Die Rhönwichtel e.V.,Am Sportplatz,14,36145,Langenbieber,0151 59109270,vorstand@rhoen-wichtel.de,www.rhoen-wichtel.de
Die Schlammteufel e.V.,Postfach,1102,65501,Idstein,06127 9869254,info@waldkindergarten-idstein.de,http://www.waldkindergarten-idstein.de
donum vitae Regionalverband Limburg zur Förderung des Schutzes des menschlichen Lebens e.V.,Diezer Str.,38a,65549,Limburg,06431 408625,info@donumvitae-limburg.de,www.donumvitae-limburg.de
donum vitae Regionalverband Osthessen zur Förderung des Schutzes des menschlichen Lebens e.V.,Rabanusstr.,31,36037,Fulda,0661 2506710,fulda@donumvitae.org,http://www.fulda.donumvitae.org
"Dreieichhörnchen, Förderverein Kinder- und Jugendfarm Dreieich e.V.",Postfach,20 11 60,63271,Dreieich,06103 469091,vorstand@dreieichhoernchen.de,http://www.dreieichhoernchen.de/
Eber-schafts-Hilfe e.V.,Kirnberger Str.,12,64297,Darmstadt,,h.nofftz@eberschaftshilfe.de,www.eberschaftshilfe.de
EBi - Entwicklungs- und Bildungsinitiative e.V.,Heinrich-Hoffmann-Str.,3,60528,Frankfurt am Main,069 74731580,info@ebi-online.org,http://www.ebi-online.org
Echte Menschen e.V.,Wilhelmshöher Allee,25b,34117,Kassel,,kontakt@echtemenschen.net,www.echtemenschen.net
eigenMächtig e. V.,An der Losse,13,34260,Kaufungen,0561 50356182,info@eigenmaechtig.de,www.eigenmaechtig.de
Eltern helfen Eltern e.V.,Rooseveltstr.,3,35394,Gießen,0641 33330,b.ratzel@ehe-giessen.de,http://www.ehe-giessen.de/
Eltern-Kind-Initiative e.V.,Am Schwimmbad,3,63500,Seligenstadt,06182 28529,info@wildedreizehn.de,http://www.wildedreizehn.de
Elterninitiative - Die Knirpse e.V.,Kunoldstr.,36,34131,Kassel,0561 33249,DieKnirpseEV@t-online.de,
Elterninitiative Griesheimer Kinder e.V.,St.-Stephans-Platz,26,64347,Griesheim,06155 665460,info@elterninitiative-griesheim.de,http://elterninitiative-griesheim.de/
Elterninitiative Hort Beethovenschule e.V.,Starkenburgring,3,63069,Offenbach,069 83071244,,
Elterninitiative Kinderladen Eberstadt e.V.,Frankensteinerstr.,17,64297,Darmstadt,06151 596005,mail@kinderladen-eberstadt.de,http://www.kinderladen-eberstadt.de/
Elternselbsthilfe Bad Zwesten e.V.,Birkenweg,8,34596,Bad Zwesten,05626 8696,bischoff-becker@gmx.de,
Elternverein der Jenaplanschule e.V.,Schulstr.,18,35410,Hungen-Bellersheim,0151 53753941,martina.kuhn@gmx.com,http://www.grundschule-bellersheim-obbornhofen.de/
Elternverein des Hortes der Brüder-Grimm-Schule e.V.,Alter Kirchhainer Weg,8,35039,Marburg,06421/15585,,
Elternverein Kindergruppe Naunheim e.V.,Wiesenstr.,5,35584,Wetzlar,06441 36487,Rappelkiste.kindergarten@web.de,http://www.rappelkiste-naunheim.de
Elternvereinigung hörgeschädigter Kinder in Hessen e.V.,Ginsterweg,3a,61239,Ober-Mörlen,,elternvereinigung-hessen@gmx.de,
Emstaler Verein e.V.,Liemeckestr.,3,34466,Wolfhagen,05692 98690,info@emstaler-verein.de,http://www.emstaler-verein.de/
EntwicklungsWERK gemeinnützige GmbH,Hanauer Landstr.,146,60314,Frankfurt am Main,069 2691087-60,info@entwicklungs-werk.de,http://www.entwicklungs-werk.de
Erleben und Lernen im Wald - ERLEN-WALD e. V.,Danziger Str.,1d,63599,Biebergemünd,06050 907394,waldkindergarten@erlenwaldev.de,
Erziehungsstellenverein Hessen e.V.,Dieburger Str.,56c,63225,Langen,06103 8039726,info@erziehungsstellenverein.de,http://www.erziehungsstellenverein.de
Eschweger Krabbelgruppe e. V.,Reichensächserstr.,31,37269,Eschwege,05651 22220,,
Essbare Stadt e. V.,Friedrich-Ebert-Str.,149,34119,Kassel,,http://www.essbare-stadt.de/,info@essbare-stadt.de
Eßtragon gGmbH,Neue Kasseler Str.,19a,35039,Marburg,06421 686960,info@esstragon.de,http://www.esstragon.de/
EX-IN Hessen e.V.,Erlenring,20,35037,Marburg,06421 6909944,jung-marburg@web.de,www.ex-in-hessen.org
FAB gemeinnützige GmbH für Frauen Arbeit Bildung,Grüner Weg,8,61169,Friedberg,06008 9181-0,info@fab-wetterau.de,http://www.fab-wetterau.de
FaCe Familiencentrum Bad Camberg und Umgebung e.V.,Badehausweg,1,65520,Bad Camberg,06434 900939,facebadcamberg@web.de,http://familienzentrum-badcamberg.de
fambinis Familienzentrum Friedrichsdorf e.V.,Ringstr.,7,61381,Friedrichsdorf,06172 954968,kontakt@mfzfriedrichsdorf.de,http://www.mfzfriedrichsdorf.de/
Familien in Not e.V.,Bahnhofstr.,13,65307,Bad Schwalbach,06120 906832,,
Familientreff Hofheim/Mütterzentrum e.V.,Hattersheimer Str.,1,65719,Hofheim,06192 703 94 58,vorsitz1@familientreff-hofheim.de,http://www.familientreff-hofheim.de/
Familienzentrum Bensheim e.V.,Hauptstr.,81,64625,Bensheim,06251 580366,info@familienzentrum-bensheim.de,http://www.familienzentrum-bensheim.de/
Familienzentrum Das Känguruh e.V.,Friedrich-List-Str.,61,63263,Neu-Isenburg,06102 836081,info@kaenguruh-ev.info,
Familienzentrum Idstein e.V.,Veitenmühlweg,11,65510,Idstein,06126 228816,info@familienzentrum-idstein.de,http://www.familie-idstein.de
Familienzentrum Kaufungen e.V.,Theodor-Heuss-Str.,15,34260,Kaufungen,05605 927771,familienzentrum-kaufungen@web.de,http://www.familienzentrum-kaufungen.de/
Familienzentrum Mamma mia e. V.,Hintergasse,10,65239,Hochheim,06146 84177,news@familienzentrum-hochheim.de,http://www.familienzentrum-hochheim.de
Familienzentrum MüZe e.V.,Hospitalstr.,10,65549,Limburg,06431 22257,mueze-limburg@web.de,http://www.muetterzentrum-limburg.de
Familienzentrum MüZe Taunusstein e. V.,Scheidertalstr.,27,65232,Taunusstein,06128 23554,buero@mueze-taunusstein.de,http://www.mueze-taunusstein.de/
FamilienZentrum Wetzlar e.V.,Lauerstr.,1a,35578,Wetzlar,06441 46592,familienzentrum-wetzlar@gmx.net,http://www.mueze-netz.de/wetzlar/
"FATRA - Frankfurter Arbeitskreis Trauma und Exil - Psychotherapeutische, soziale und politische Unterstützung für Flüchtlinge und Verfolgte e...",Berger Str.,118,60316,Frankfurt,069 499174,fatra@t-online.de,http://www.fatra-ev.de
Feministische Mädchenarbeit e.V.,Eschersheimer Landstr.,534,60433,Frankfurt,069 531070,geschaeftsstelle@fem-ffm.de,http://www.fem-maedchenhaus.de/
Feriendorf im Odenwald e.V.,Am Kröckelbach,,64658,Fürth-Kröckelbach,06253 3149,feriendorf-kroeckelbach@t-online.de,http://www.feriendorf-kroeckelbach.de/
Flexible Jugendhilfe Darmstadt e.V.,Julius-Reiber-Str.,32,64293,Darmstadt,06151 595355,info@flexiblejugendhilfe.de,http://www.flexiblejugendhilfe.de/
Fliedner-Verein Rockenberg e.V.,Postfach,44,35517,Rockenberg,06033 66938,volker.mueller@jva-rockenberg.justiz.hessen.de,http://www.fliednerverein-rockenberg.de/
Förderband Viernheim e.V.,Friedrich-Ebert-Straße,8,68519,Viernheim,06204 - 91 23 96,info@foerderband-viernheim.de,http://www.foerderband-viernheim.de
Förderkreis Rainmühle e.V.,Mahlertshof,4,36151,Burghaun,06652 991 0,info@neue-rhoen.de,
Förderung der Bewährungshilfe in Hessen e.V.,Rudolfstraße,13 - 17,60327,Frankfurt,069 97768106,office@fbh-ev.de,http://www.fbh-ev.de/
Förderverein Burg Schlotterstein e.V. Kindertagesstätte Alter Weg,Alter Weg,60,63110,Rodgau,06106 645722,Ingo.Klabers@burg-schlotterstein.de,http://www.burg-schlotterstein.de
Förderverein der Adolf-Reichwein-Schule Langen e.V.,Zimmerstr.,60,63225,Langen,06103 946310,Foerderverein@ARS-Langen.de,
Förderverein der Alexander-Schmorell-Schule e.V.,Grenzweg,10,34125,Kassel,0561 813028,c.kaeseler@gmx.de,http://www.alexander-schmorell-schule.de/Alexander-Schmorell-Schule/FORDERVEREIN.html
Förderverein der Johann-Peter-Schäfer-Schule e. V.,Johann Peter-Schäfer-Str.,,61169,Friedberg,06045 7381,,
Förderverein der Viktor-Frankl-Schule e.V.,Fritz-Tarnow-Str.,27,60320,Frankfurt am Main,069 21235132,Gabriela.Pluciennik@stadt-frankfurt.de,http://www.viktor-frankl-schule.de
Förderverein für Bürgerhilfe Weimar e.V.,Hauptstr.,10,35096,Weimar-Wolfshausen,06421 79133,veit@foerderverein-weimar.de,http://www.foerderverein-weimar.de
Förderverein für chronisch kranke Kinder e.V. (KroKi),Feulgenstr.,10-12,35392,Gießen,,KroKiGiessen@gmx.de,http://www.kroki-giessen.de
Förderverein für seelische Gesundheit e.V.,Ludwigstr.,14,35390,Gießen,0641 975760,buescher@ifd-giessen.de,http://www.fsg-giessen.de/
Förderverein Gemeinsames Wohnen Jung und Alt e.V. Darmstadt,Arheilger Str.,68,64289,Darmstadt,06151 782840,b.bork@t-online.de,http://www.wohnprojekte-darmstadt.de/
Förderverein Hessischer Flüchtlingsrat e.V.,Leipziger Str.,17,60487,Frankfurt,069 97698710,hfr@fr-hessen.de,www.fr-hessen.de
Förderverein Hospiz Kellerwald e. V.,Gartenstr.,1,34630,Gilserberg,06696 7138,VestweberLothar@aol.com,
Förderverein KONTAKT - Freie Alten- und Krankenpflege e.V.,Leibnizstr.,5,60316,Frankfurt,,foerderverein@altenhilfe-kontakt.de,
Förderverein Roma e.V.,Niddastr.,66,60329,Frankfurt am Main,069 440123,Foerderverein.Roma@t-online.de,http://www.foerdervereinroma.de
Förderverein Schülerbetreuung Pestalozzischule e. V.,Am Sportfeld,9,68623,Lampertheim,06206 57090,info@betreuung-pestalozzischule.de,http://www.betreuung-pestalozzischule.de
Förderverein Soziale Dienste Linden e.V.,Elisabeth-Schwarzhaupt-Str.,5,35440,Linden,06403 9793013,info@fsd-linden.de,
Förderverein zur Förderung von Kindern und Jugendlichen im inklusiven Unterricht des regionalen Beratungs- und Förderzentrums Astrid-Lindgren-Schule Kassel e...,Hupfeldstr.,8,34121,Kassel,0561 313855,poststelle@lindgren.kassel.schulverwaltung.hessen.de,
"FortSchritt Nordhessen - Hilfe für cerebral bewegungsgestörte Kinder, Jugendliche und Erwachsene e...",Schöneberger Str.,3,34128,Kassel,0561 884587,mail@fortschritt-nordhessen.de,http://www.fortschritt-nordhessen.de
Forum Alter und Jugend e.V.,Postfach,11 03 61,35348,Gießen,0641 493242,alterundjugend@gmx.de,
Forum Humanistische Pädagogik und Betreuung e.V.,Frankfurter Str.,59,35037,Marburg,06421 6972222,forumbetreuung@web.de,
Forum Schmiede e.V.,Eddersbacher Berg,9,65232,Taunusstein,06128 41251,heidi.hoehn@web.de,http://www.forum-schmiede.de
Frankfurter Arbeitskreis für Psychoanalytische Pädagogik e.V.,Myliusstr.,20,60323,Frankfurt,069 701655,sekretariat@fapp-frankfurt.de,http://www.fapp-frankfurt.de/
Frankfurter Arbeitslosenzentrum e.V.,Friedberger Anlage,24,60316,Frankfurt,069 700425,zentrum@falz.org,http://www.falz.org/
Frankfurter Institut für Erziehungshilfen und Familienberatung e.V.,Münchener Straße,48,60329,Frankfurt,069 13023713,info@fief-ev.de,http://www.fief-ev.de
Frankfurter Institut für Interkulturelle Forschung und Beratung e.V.,Scheidswaldstr.,41,60385,Frankfurt am Main,069 46939794,spohn@inter-kultur.com,http://www.inter-kultur.com
FRANKFURTER KINDERHAUS Gesellschaft zur pädagogisch-therapeutischen Betreuung von Kindern und Jugendlichen mit beschränkter Haftung,Im Heimgarten,8,61352,Bad Homburg,06172 43142,frankfurter.kinderhaus@t-online.de,
Frankfurter Stiftung für Blinde und Sehbehinderte (Polytechnische Gesellschaft),Adlerflychtstr.,8-14,60318,Frankfurt,069 9551240,info@sbs-frankfurt.de,http://www.sbs-frankfurt.de
Frankfurter Therapieverbund Hessischer Guttempler-Einrichtungen gemeinnützige GmbH c/o Guttempler-Hilfswerk e...,Mahlertshof,4,36151,Burghaun,06652 9910,h.severing@fachklinik-mahlertshof.de,
Frankfurter Verband für Alten- und Behindertenhilfe e.V.,Gummersbergstr.,24,60435,Frankfurt,069 2998070,zentrale@frankfurter-verband.de,http://www.frankfurter-verband.de/
Frankfurter Verein für soziale Heimstätten e.V.,Große Seestr.,43,60486,Frankfurt,069 79405300,bereichsleitung@frankfurter-verein.de,http://www.frankfurter-verein.de/
Frankfurter Verein zur Unterstützung von psychisch kranken Kindern und Jugendlichen e.V.,Deutschordenstr.,50,60528,Frankfurt,069 6301-5049,info@verein-kinderpsychiatrie.de,
Frankfurter Zentrum für Ess-Störungen gemeinnützige GmbH,Hansaallee,18,60322,Frankfurt,069 550176,info@essstoerungen-frankfurt.de,http://www.essstoerungen-frankfurt.de/
FRAP Agentur - Gemeinnützige Gesellschaft für das Frankfurter Arbeitsmarktprogramm mbH,Vilbeler Str.,29,60313,Frankfurt/Main,069 68097-570,elfriede.dirnbacher@frap-agentur.de,http://www.frap-agentur.de
Frau-Mutter-Kind Mühlheim am Main e.V.,Hallgartenstraße,6,63165,Mühlheim am Main,06108 71563,info@frau-mutter-kind.de,http://www.frau-mutter-kind.de/
Frauen Arbeit Bildung e.V.,Grüner Weg,8,61169,Friedberg,06008 91810,info@fab-wetterau.de,http://www.fab-ev-wetterau.de/
Frauen für Kinder im Werra-Meißner-Kreis e.V.,Niederhoner Str.,22,37269,Eschwege,05651 7843,info@frauen-fuer-frauen-im-wmk.de,http://www.frauen-fuer-frauen-im-wmk.de/
Frauen helfen Frauen - Haus für Frauen und Kinder im Hochtaunuskreis e.V.,Oberhöchstadter Str.,3,61440,Oberursel,06171 580804,beratungsstelle@frauenhaus-oberursel.de,http://www.frauenhaus-oberursel.de
Frauen helfen Frauen - Hilfe zur Selbsthilfe e.V.,Postfach,1420,63404,Hanau,06181 12575,mail@frauenhaus-hanau.de,www.frauenhaus-hanau.de
Frauen helfen Frauen e.V. Waldeck-Frankenberg,Brunnenstraße,53,34537,Bad Wildungen,05621 91689,frauenberatungsstelle-wa-fkb@t-online.de,http://www.frauenhaus-badwildungen.de
Frauen helfen Frauen e.V.,Postfach,1407,36224,Bad Hersfeld,06621 65333,frauenhaus-bad-hersfeld@freenet.de,www.frauenhaus-bad-hersfeld.de
Frauen helfen Frauen e.V.,Postfach,1146,63601,Wächtersbach,06053 4987,frauenhaus-waechtersbach@gmx.de,www.frauenhaus-wächtersbach.de
"Frauen helfen Frauen, Wetterau e.V.",Postfach,10 03 27,61143,Friedberg (Hessen),06031 15353,info@frauenhaus-wetterau.de,http://www.frauenhaus-wetterau.de/
Frauen informieren Frauen e.V.,Obere Königsstr.,47,34117,Kassel,0561 893136,info@fif-kassel.de,http://www.fif-kassel.de
Frauen-Notruf Wetterau e.V.,Hinter dem Brauhaus,9,63667,Nidda,06043 4471,frauennotruf@t-online.de,http://www.frauen-notruf-wetterau.de
Frauenbildungszentrum Bad Homburg e.V.,Hessenring,84,61348,Bad Homburg,06172 84188,info@frauenbildungszentrum.de,http://www.frauenbildungszentrum.de
Frauengesundheitszentrum Neuhofstraße e.V.,Neuhofstr.,32 H,60318,Frankfurt,069 591700,info@fgzn.de,http://www.paritaet.org/hessen/fgzn/
Frauengesundheitszentrum Sirona e.V.,Schiersteiner Str.,21,65187,Wiesbaden,0611 301694,fgz-sirona@t-online.de,http://www.fgz-sirona.de/
Frauenhaus Bergstraße e.V.,Am Bildstock,8,64625,Bensheim,06251 69676,verein@frauenhaus-bergstrasse.de,http://www.frauenhaus-bergstrasse.de/
Frauenhaus Darmstadt e.V.,Bad Nauheimer Str.,9,64289,Darmstadt,06151 66860,info@frauenhaus-darmstadt.de,
Frauenhaus Wetzlar e.V.,Langgasse,70,35576,Wetzlar,06441 46364,verein@frauenhaus-wetzlar.de,http://www.frauenhaus-wetzlar.de
Frauenhilfe Frankfurt e.V.,Niedwiesenstraße,9,60431,Frankfurt,01577 2875252,info@frauenhilfe-frankfurt.de,
Frauenselbsthilfe nach Krebs Landesverband Hessen e.V.,Rauschbergstr.,7,36369,Lautertal,06643 1859,h.haase@frauenselbsthilfe.de,
Frauentreff Brückenhof – Verein zur Förderung stadtteilbezogener Frauen- und Familienbildung e.V.,Brückenhofstr.,84,34132,Kassel,0561 408388,info@frauentreff-brueckenhof.de,http://www.frauentreff-brueckenhof.de/
Frauenwelten - kultursensible psychosoziale Frauengesundheit e.V.,Schiersteiner Str.,21,65187,Wiesbaden,,office@frauenwelten-wi.de,www.frauenwelten-wi.de
Frauenwürde Ortsverein Eschborn - Verein zur Förderung von Schwangerschaftskonfliktberatung in Trägeschaft katholischer Frauen und Männer e...,Wacholder Weg,4,65760,Eschborn,06173 65220,beratung@frauenwuerde-eschborn.de,http://www.frauenwuerde-eschborn.de/
Frauenzentrum e.V.,Darmstädter Str.,101,65428,Rüsselsheim,06142 965757,info@frauenzentrum.de,http://www.frauenzentrum.de
"Frauenzimmer Rodgau, Mütterzentrum e.V.",Martin-Bihn-Str.,11,63110,Rodgau,06106 667969,vorstand@frauenzimmer-rodgau.de,
Freie Gesundheitshilfe - Ambulante Pflege und psychosoziale Betreuung e.V.,Emanuel-Geibel-Str.,18,65185,Wiesbaden,0611 379154,info@freie-gesundheitshilfe.de,http://www.freie-gesundheitshilfe.de/
Freie Lebensstudien-Gemeinschaft für soziale Hygiene e. V.,Melchiorsgrund,1,36318,Schwalmtal-Hopfgarten,06638 961133,goschia.schiller@melchiorsgrund.de,http://www.melchiorsgrund.de
Freie Schule Untertaunus e.V.,Scheidertalstr.,22,65326,Aarbergen,06120 5767,buero@freie-schule-untertaunus.de,http://www.freie-schule-untertaunus.de/
Freiwillig in Kassel e.V.,Spohrstr.,5 (Eingang kleine Rosenstr.),34117,Kassel,0561 102425,info@freiwilligenzentrumkassel.de,http://www.freiwilligenzentrumkassel.de/
freiwillig-sozial-aktiv Freiwilligenzentrum für Stadt und Landkreis Gießen e. V.,Ludwigstr.,6,35390,Gießen,0641 306-2258,freiwilligenzentrum@giessen.de,http://www.freiwillig-sozialaktiv-giessen.de
Freiwillige Suchtkrankenhilfe e.V.,Postfach,14 38,61248,Bad Homburg,06172 23233,info@f-s-h.de,http://www.f-s-h.de/
Freiwilligenagentur Marburg-Biedenkopf (FAM) e.V.,Am Grün,16,35037,Marburg,06421 270516,info@freiwilligenagentur-marburg.de,http://www.freiwilligenagentur-marburg.de/
Freiwilligenzentrum - aktiv für Alsfeld e.V.,Grabbrunnen,4,36304,Alsfeld,06631 301056,willkommen@fz-alsfeld.de,http://www.fz-alsfeld.de
Freiwilligenzentrum - aktiv für Bad-Nauheim e.V. Erika-Pitzer-Begegnungszentrum,Blücherstr.,23,61231,Bad Nauheim,06032 920359,fwz-badnauheim@web.de,http://www.fwz-badnauheim.de/
freuNde e.V. - Förderverein für Familien mit neurologisch kranken Kindern e.V.,Keplerstr.,9,34246,Vellmar,05605 5204,freunde-verein-kassel@gmx.de,http://www.kinderneuro-freunde-ks.de
Freundes- und Förderkreis der Behindertenwohnanlage Offenbach e.V.,Lilienweg,14,63165,Mühlheim,06108 66356,,
Freundeskreis Waldkrankenhaus Köppern e.V.,Emil-Sioli-Weg,1-3,61381,Friedrichsdorf,06175 7984987,info@emil-sioli.de,
Friedberger Begegnungsgarten e.V.,Friedberger Str.,7,61231,Bad Nauheim,,,
FRÖBEL Bildung und Erziehung gGmbH,Henschelstraße,16,60314,Frankfurt am Main,01525 4538301,rhein-main@froebel-gruppe.de,
GAP Zentrum für Beratung und Psychotherapie e.V.,Schwanallee,17,35037,Marburg,06421 22232,info@gap-pb-marburg.de,http://www.gap-marburg.de/
Geburtshaus Frankfurt e.V.,Böttgerstr.,22,60389,Frankfurt,069 527282,info@geburtshausfrankfurt.de,http://www.geburtshaus-frankfurt.de/
Geburtshaus Marburg e.V.,Schwanallee,31,35037,Marburg,06421 162121,info@geburtshaus-marburg.de,http://www.geburtshaus-marburg.de/
Geburtshaus und Familienzentrum e.V.,Heinrich-von-Bibra-Platz,1a,36037,Fulda,0661 32326,info@geburtshaus-fulda.de,http://www.geburtshaus-fulda.de/
"Gehörlosen Sport- und Kultur-Club ""Wetterau"" Butzbach 1987 e.V.",Schießmauer,13c,61273,Wehrheim,,krueger-duell@online.de,
Gemeinnützige Campus am Park Gesellschaft mbH,Am Campus,1,36358,Herbstein,06647 9606700,info@campus-am-park.de,www.campus-am-park.de
Gemeinnützige Genossenschaft Familienbezogene Jugendhilfe im Sozialraum eG,Am Schießhorst,7,63679,Schotten,06044 9895276,mail@vb.fajuso.de,
Gemeinnützige Gesellschaft für Sozialarbeit Bergstraße mbH,Darmstädter Str.,269,64625,Bensheim,06251 789690,g.krebs@vfk-ggs.de,http://www.vfk-ggs.de/
Gemeinnützige Gesellschaft für Sozialarbeit Jugendhaus Malchen mbH,Darmstädter Str.,269,64625,Bensheim,06251 789690,g.krebs@vfk-ggs.de,http://www.jugendhaus-malchen.de/
Gemeinnützige Offenbacher Ausbildungs- und Beschäftigungsgesellschaft mbH,Kaiserstr.,66,63065,Offenbach,069 9864880,kontakt@goab.de,http://www.goab.de/
Gemeinnütziger Verein zur Förderung systemischer Studien und Organisationsentwicklung von Humansystemen e...,Bernardstr.,112,63067,Offenbach,069 9551370,office@istup-ffm.de,http://www.istup-ffm.de/
Gemeinsam ins Alter Kassel e.V.,Distelbreite,4,34130,Kassel,0561 87970115,info@gia-kassel.de,http://www.gia-kassel.de/
Gemeinsam ins Alter Schwalmstadt e.V.,Landgraf-Karl-Str.,43,34613,Schwalmstadt,06691 22821,darmstadts@t-online.de,www.gemeinsaminsalter-schwalmstadt.de
Gemeinsam leben Frankfurt e.V.,Walter-Hesselbach-Str.,180,60389,Frankfurt,0173 3117821,vorstand@gemeinsamleben-frankfurt.de,http://www.gemeinsamleben-frankfurt.de
Gemeinsam leben Hessen e.V.,Wilhelmsplatz,2,63065,Offenbach,069 83008685,info@artycon.de,http://www.gemeinsam-leben-hessen.de
Gemeinschaft für Heilpädagogik und Sozialtherapie e.V.,Erlenweg,9,36358,Herbstein,06643 7090,info@gemeinschaft-altenschlirf.de,http://www.gemeinschaft-altenschlirf.de/
Gemeinschaft in Kehna e.V.,Kenenstr.,6,35096,Weimar-Kehna,06421 97440,info@in-Kehna.de,http://www.in-kehna.de/
Generationenhilfe Rüsselsheim e.V.,Frankfurter Str.,12,65428,Rüsselsheim,06142 62203,,
Gesellschaft Erziehung und Elternarbeit e.V.,Alt Preungesheim,2,60435,Frankfurt,069 541001,Verein@erziehung-elternarbeit.de,http://www.ahze-ffm.de/
Gesellschaft für Ausbildung und Beschäftigung mbH in Limburg-Weilburg,Im Schlenkert,14,65549,Limburg,06431 94760,office@gab-limburg.de,http://www.gab-limburg.de/
Gesellschaft für Dienste im Alter mbH (GDA),Hildesheimer Str.,187,30173,Hannover,0511 280090,info@gda.de,http://www.gda.de/
Gesellschaft für Sozialpsychiatrie im Werra-Meißner-Kreis e.V.,Steinbachstr.,5,37235,Hessisch Lichtenau,05602 8049959,martin.von-hagen@t-online.de,
Gesundheit und Alter e.V. (GesA),Kirchweg,1,34260,Kaufungen,05605 80070,info@tagespflege-lossetal.de,http://www.tagespflege-lossetal.de
Gesundheitszentrum Marbachshöhe e.V.,Ludwig-Erhard-Str.,34,34131,Kassel,0561 39385,info@gesundheitszentrum-marbachshoehe.de,http://www.gesundheitszentrum-marbachshoehe.de/
GinCo e.V.,Sandgasse,83a,64347,Griesheim,06155 76305,ginsburgswetlana@hotmail.com,http://www.ginco-ev.de
GlobaLokal e.V.,Postfach,900145,60441,Frankfurt am Main,0176 56752807,info@GlobaLokal.org,http://www.GlobaLokal.org
Glückspilze - Förderverein für Erziehung und Bildung von Kleinkindern e.V.,Ludwigstr.,90,63067,Offenbach,069 82993763,info@villakunterbunt-of.de,http://www.villakunterbunt-krippe.de
Grümel e.V. - Grüne Mülleimer für Arbeit und Leben,Propsteischloß,2a,36041,Fulda,0661 902930,info@gruemel.de,http://www.gruemel.de/
Günter-Feldmann-Zentrum e.V.,Waldschmidtstr.,115,60314,Frankfurt,069 5973181,info@feldmann-beratungszentrum.de,http://www.feldmann-beratungszentrum.de/
"Guttempler in Deutschland (I.O.G.T.), Guttempler - Landesverband Hessen e.V.",Metzlerstr.,34,60594,Frankfurt,069 61990349,info@guttemplerhessen.de,http://www.guttemplerhessen.de
Guttempler-Sozialwerk e.V.,Röderichstr.,6,60489,Frankfurt,069 616018,Guttempler-Sozialwerk@t-online.de,http://www.gsw-nachsorge.de/
Guttemplerverein Frankfurt e.V.,Metzlerstr.,34,60594,Frankfurt,069 624681,guttemplervereinffm@t-online.de,http://www.hausverein-ffm.de/
Haftentlassenenhilfe e.V.,Nidddastr.,72,60329,Frankfurt,069 9450520,info@haftentlassenenhilfe-ev.de,http://www.haftentlassenenhilfe-ev.de
Hanauer Hilfe e.V. Beratung für Opfer und Zeugen von Straftaten,Salzstr.,11,63450,Hanau,06181 24871,kontakt@hanauer-hilfe.de,http://www.hanauer-hilfe.de/
Hand in Hand - Seniorenhilfe Hainburg e.V.,Kappesweg,13,63512,Hainburg,06182 69427,astrid.goll@t-online.de,
Hand in Hand e.V. Nachbarschaftshilfeverein der Vereinigten Wohnstätten 1889 eG,Samuel-Beckett-Anlage,12,34119,Kassel,0561 2876276,handinhand-we@arcor.de,http://www.handinhand-kassel.de
Haus am Burgberg Wohn- und Förderstätte für geistig und körperlich Behinderte gemeinnützige Gesellschaft mit beschränkter Haftung ein Haus der Cornelius-Helferich-Stiftung,Lochmühle,5,63599,Biebergemünd,06050 91180,info@haus-am-burgberg.de,http://www.hausamburgberg.de/
Haus Brombachtal Wohn- und Förderstätte für geistig und körperlich Behinderte gemeinnützige Gesellschaft mit beschränkter Haftung ein Haus der Cornelius-Helferich-Stiftung,Zeller Str.,189,64753,Brombachtal,06063 50000,info@haus-brombachtal.de,http://www.haus-brombachtal.de
Haus der Jugend e.V.,Deutschherrnufer,12,60594,Frankfurt,069 6100150,dr.mueller@jugendherberge-frankfurt.de,http://www.jugendherberge-frankfurt.de/
Haus des Kindes e.V.,Alt Niederursel,51,60439,Frankfurt,069 5890165,haus-des-kindes@t-online.de,http://www.haus-des-kindes.com/
Haus Hohensolms Stiftung,Burgstr.,14,35644,Hohenahr,06446 92390,mail@haus-hohensolms.de,http://www.haus-hohensolms.de
Haus Odenwald gGmbH,Lise-Meitner-Straße,12,64823,Groß-Umstadt,06078 96769-0,info@hausodenwald.de,http://www.hausodenwald.org
Häusliche Kinderkrankenpflege e.V.,Alte Kasseler Str.,43,35039,Marburg,06421 681606,info@kinderkrankenpflege-marburg.de,http://www.kinderkrankenpflege-marburg.de/
Heil- und Erziehungsinstitut für Seelenpflege- bedürftige Kinder und Jugendliche Lauterbad e.V.,Ehlener Str.,27,34131,Kassel-Wilhelmshöhe,0561 938960,mail@institut-lauterbad.de,http://www.kinderheim-lauterbad.de/
Heil- und Lebensstätte Friedrich Daumer e.V. Therapeutikum für drogenabhängige junge Menschen,Am Schloßberg,1,36391,Sinntal-Schwarzenfels,06664 96360,info@daumer-haus.de,http://www.daumer-haus.de/
Heilhaus Kassel gemeinnützige GmbH,Brandaustr.,10,34127,Kassel,0561 983260,g.paul@heilhaus.org,http://www.heilhaus.org/
Heilpädagogische Initiativen e.V. Geschäftsstelle,Lange Str.,18,63110,Rodgau,06106 668923,heilpaed.initiativen@t-online.de,http://www.hpi-ev.de/
Heilpädagogischer Verein Haus Michael e.V.,Eichhörnchenpfad,4,65933,Frankfurt,069 93995580,m.birkelbach@michael-schule-frankfurt.de,http://www.michael-schule-frankfurt.de/
"Heim und Werkstätten für seelenpflegebedürftige Menschen ""Rauher Berg"" e.V.",Rauher Berg,,63683,Ortenberg-Gelnhaar,06049 96000,kontakt@rauher-berg.de,http://www.rauher-berg.de/
"Helikopter, Lernen und Spielen e.V.",Siegershäuser Str.,1,37235,Hessisch Lichtenau,05602 2894,info@heli-kopter.de,http://www.heli-kopter.de/
Henry und Emma Budge-Stiftung,Wilhelmshöher Str.,279,60389,Frankfurt,069 478710,info@budge-stiftung.de,http://www.budge-stiftung.de/
Hessische Gesellschaft zur Förderung der Gehörlosen und Schwerhörigen e.V.,Rothschildallee,16 a,60389,Frankfurt am Main,069-94 59 30 – 25,blochius@hessische-gesellschaft.de,http://hessische-gesellschaft.de/
"Hessische Vereinigung zur Förderung hör-, lern- und sprachbehinderter Kinder e.V.",Asternweg,2,63697,Hirzenhain/Merkenfritz,06187 9052027,hoeren-lernen-sprechen@gmx.de,
Hessischer Landesverband für die Rehabilitation der Aphasiker e.V. (HLRA),Am Markt,10,35260,Stadtallendorf,06428 926736,goetz-anwalt@t-online.de,http://www.hessenaphasie.de
Heydenmühle e.V.,Außerhalb Lengfeld,3,64853,Otzberg,06162 94040,buero@heydenmuehle.de,http://www.heydenmuehle.de/
Hiergeblieben e.V.,Grundstr.,10,64289,Darmstadt,06151 9813337,info@hiergeblieben-kranichstein.de,http://www.hiergeblieben-kranichstein.de
Hilde-Ulrichs-Stiftung für Parkinsonforschung,Postfach,700432,60554,Frankfurt,069 67 77 80 21,Stephanie.Heinze@aktive-parkinsonstiftung.de,www.aktive-parkinsonstiftung.de
Hilfe für ältere Bürger e.V.,Hirtengasse,15,63263,Neu-Isenburg,06102 23320,essen_auf_raedern@t-online.de,http://www.aeltere-buerger-neu-isenburg.de/
Hilfe für das verlassene Kind e.V.,Am Kirschberg,1,36341,Lauterbach,06641 96750,Kirschberg@t-online.de,http://www.hilfe-fuer-das-verlassene-kind.de
Hilfe für krebskranke Kinder Frankfurt e.V.,Komturstr.,3,60528,Frankfurt,069 9678070,info@hfkk.de,http://www.kinderkrebs-frankfurt.de
Hilfe zur Selbsthilfe e.V.,Krebsmühle,1,61440,Oberursel,06171 984510,hsh@krebsmuehle.de,
Hof 53 e.V.,Alt Niederursel,51,60439,Frankfurt am Main,069 5890165,hof-verein@der-hof.de,http://www.der-hof.de/
"Hof Hauser Arbeitsgemeinschaft für Menschenbildung, Sozialkunst und Landbau e.V.",Langelmühle,,34466,Wolfhagen,05692 1635,hofhauser@web.de,
Hofgemeinschaft für heilende Arbeit e.V. Hofgut Friedelhausen,Hofgut Friedelhausen,,35457,Lollar,06406 91650,Hofgemeinschaft@friedelhausen.de,http://www.friedelhausen.de/
Horizont e.V.,Goethestr.,6,64807,Dieburg,06071 4997420,kontakt@horizont-dieburg.org,http://www.horizont-ev-dieburg.de/
Hospital zum heiligen Geist Stiftung des öffentlichen Rechts,Steinbacher Hohl,2-26,60488,Frankfurt am Main,069 76013902,geschaeftsfuehrung@sthhg.de,http://www.stiftung-hospital-zum-heiligen-geist.de
Hospiz Mainspitze e.V.,Bebelstr.,36,65462,Ginsheim-Gustavsburg,06134 557505,info@hospiz-mainspitze.de,www.hospiz-mainspitze.de
IGEL-OF Initiative gemeinsam Lernen in Stadt und Kreis Offenbach e.V.,Wilhelmsplatz,2,63065,Offenbach,069 83008685,info@igel-of.de,http://www.igel-of.de
"IJB gemeinnützige Gesellschaft für Integration, Jugend und Berufsbildung mbH",Nordanlage,33,35390,Gießen,0641 969830,info@ijb-giessen.de,http://www.ijb-giessen.de
Iman Bildungs- und Freizeitzentrum muslimischer Frauen e.V.,Donnersbergring,42,64295,Darmstadt,06151 3680080,info@imanonline.de,www.imanonline.de
Indimaj (Hilfe zur Selbsthilfe) e.V.,Königstor,32,34117,Kassel,0561 70553429,info@indimaj.de,www.indimaj.de
Informationszentrum für Männerfragen e.V.,Sandweg,49,60316,Frankfurt,069 4950446,infozentrum@maennerfragen.de,http://www.maennerfragen.de/
INFRAU e.V.,Höhenstr.,44,60385,Frankfurt,069 451155,info@infrau.de,http://www.infrau.de/
Initiative für Jugendberufsbildung der sozialen Brennpunkte in Gießen e.V.,Nordanlage,33,35390,Gießen,0641 969830,info@ijb-giessen.de,http://www.ijb-giessen.de/
"Initiative für Kinder-, Jugend- und Gemeinwesenarbeit in Ockershausen e.V.",Dietrich-Bonhoeffer-Str.,16-18,35037,Marburg,06421 992048-0,team@ikjg.de,http://www.ikjg.de/
Integrations- und Kulturförderung Sehgeschädigter e.V. IKS,Finkenloh,12,34130,Kassel,0561 5063026,iks.beckmann@gmx.de,
Integrative Drogenhilfe e.V.,Schielestr.,22-26,60314,Frankfurt,069 9419700,info@idh-frankfurt.de,http://www.idh-frankfurt.de/
Integratives Montessori-Kinderhaus e.V.,Stadtring,65,64720,Michelstadt,06061 922394,kinderhaus@montessori-michelstadt.de,http://www.montessori-michelstadt.de/
Interaktiv - Generationen füreinander Oberursel e.V.,Ebertstr.,11,61440,Oberursel,06171 25587,interaktiv.oberursel@t-online.de,http://www.interaktiv-oberursel.de/
Interessengemeinschaft Epidermolysis Bullosa e.V. DEBRA Deutschland Bundesgeschäftsstelle,Schulstr.,23,35216,Biedenkopf,06461 9260887,ieb@ieb-debra.de,http://www.ieb-debra.de/
Interessengemeinschaft Kleine Heime - Hessen e.V.,Am Borngarten,6,36277,Schenklengsfeld,06629 9150456,info@ikh-hessen.de,http://www.ikh-hessen.de/
Internationale Jugendgemeinschaftsdienste Landesverein Hessen e.V.,Kasernenstr.,48,53111,Bonn,0228 228000,ijgd.bonn@ijgd.de,http://www.ijgd.de
JuFa e. V.,Scheidswaldstr.,41,60385,Frankfurt am Main,069 46939782,jufa.ev@online.de,
Jugendheim Marbach Gesellschaft mit Beschränkter Haftung,Bienenweg,7,35041,Marburg-Marbach,06421 63438,info@jugendheim-marbach.de,http://www.jugendheim-marbach.de/
Jugendhilfe Limburg-Weilburg e.V.,Weiersteinstr.,17,65549,Limburg,06431 26737,verein@jhlw.de,http://www.jugendhilfe-limburg-weilburg.de/
Jugendhilfe Usinger Land e.V.,Häuser Weg,17,61267,Neu-Anspach,06081 16306,jul@jugendhilfe-usinger-land.de,http://www.jugendhilfe-usinger-land.de/
Jugendhilfeeinrichtung Haus Wildgänse gem. e.V.,Erlenweg,1b,36318,Schwalmtal,06638/8332,info@hauswildgaense.de,
Jugendhof Bessunger Forst e.V.,Aschaffenburger Str.,183-187,64380,Roßdorf,06151 145171,info@jugendhof.org,http://www.jugendhof-bessunger-forst.de/
JUKO Marburg e.V.,Neue Kasseler Str.,3,35039,Marburg,06421-999740,office@juko-marburg.de,http://www.jugendkonflikthilfe.de/
Junge Entwicklung fördern e.V.,Hofackerstraße,13,35091,Cölbe,0163 1383959,kontakt@jef-verein.de,
k a b e r a - Beratung bei Eßstörungen Kassel e.V.,Goethestr.,31,34119,Kassel,0561 7013310,kabera@t-online.de,http://www.kabera.de/
K.i.M. - Kindergruppe in Melsungen e.V.,Grüne Str.,9,34212,Melsungen,05661 2750,Info@kim-melsungen.de,http://www.kim-melsungen.de/
Kaleidoskop e. V.,Berner Str.,109,60437,Frankfurt,069 95908816,gf@kaleidoskopev.de,
Kaleidoskop e.V.,Schwalbenstraße,20,63263,Neu-Isenburg,06102 3686894,kaleidoskop-geschaeftsfuehrung@t-online.de,http://www.kaleidoskop-ev.de/
Kasseler Bündnis Inklusion e. V.,Kirchweg,75,34119,Kassel,,mail@inklusion-kassel.de,http://www.inklusion-kassel.de
"Kasseler Familienberatungszentrum für Kinder, Jugendliche und Familien e.V.",Hinter der Komödie,"17, 2.St.",34117,Kassel,0561 784490,info@familienberatungszentrum.de,http://www.familienberatungszentrum.de/
Kind und Kegel - Verein zur Förderung kollektiver Kindererziehung e.V.,Brandenburger Str.,5,34131,Kassel,0561 34706,info@kindkegel.de,
Kinder im Zentrum - Gallus e.V.,Idsteiner-Str.,91,60326,Frankfurt,069 75846666,verwaltung@kiz-gallus.de,http://www.kiz-gallus.de/
"Kinder, Bildung, Zukunft e.V.",Leipziger Str.,59c,60487,Frankfurt am Main,069 71449790,info@kibiz.org,http://www.kibiz.org/
Kinder- und Jugendfarm Darmstadt e.V.,Maulbeerallee,59,64291,Darmstadt,06151 718781,,http://www.kinderfarm-darmstadt.de/
"Kinder- und Jugendhilfe - Schutzhof Calden -, Bezirksverband Hessen-Nord e.V.",Pöttenbreite,1,34379,Calden,05677 959811,g.goette@schutzhof-calden.de,http://www.schutzhof-calden.de
Kinder- und Jugendtelefon Wiesbaden e.V.,Landgrabenstr.,2,65199,Wiesbaden,0611 9740062,info@kjt-wiesbaden.de,http://www.kjt-wiesbaden.de/
"Kinder-, Familien- und Seniorenfreundliches Felsberg e.V.",Untere Birkenallee,19,34587,Felsberg,05662 6271,verwaltung@soziales-dienstleistungszentrum.de,http://www.soziales-dienstleistungszentrum.de
Kinderbauernhof Kassel e.V.,Am Werr,8,34125,Kassel,,info@kinderbauernhof-kassel.de,http://www.Kinderbauernhof-Kassel.de
Kinderfarm Jimbala e.V.,Mühlweg,48,61169,Friedberg,,karinjohannsmann@yahoo.de,http://www.jimbala.de
"Kinderförderungsgesellschaft mbH, Heim für Behinderte",Königsberger Str.,1,63667,Nidda-Harb,06043 96370,kinderheim-harb@t-online.de,http://www.kinderheim-harb.de/
Kindergartenverein Kleine Strolche e.V.,Ober-Laudenbacherstr.,26a,64646,Heppenheim,06252 126330,kindergarten-kleinestrolche@t-online.de,http://www.kleinestrolche-olb.de/
Kindergruppe Bollerwagen e.V.,Unterer Hardhof,11a,35398,Gießen,0641 62880,info@kindergruppe-bollerwagen.de,http://www.kindergruppe-bollerwagen.de
Kindergruppe Nora e.V.,Nora-Platiel-Str.,3,34127,Kassel,0561 8043496,info@nora-kindergruppe.de,http://www.nora-kindergruppe.de
KINDERHAUS - Krabbelstube Mainspitze e.V.,Schulstr.,29,65474,Bischofsheim,,vorstand@krabbelstube-mainspitze.de,www.krabbelstube-mainspitze.de/
Kinderhaus Vogtstraße  e.V.,Vogtstr.,41,60322,Frankfurt,069 599158,kinderhaus.ffm@t-online.de,http://www.kinderhaus-vogtstrasse.de/
Kinderhilfswerk Stiftung Global-Care,Gebrüder-Seibel-Ring,23,34560,Fritzlar,05622 6160,info@kinderhilfswerk.de,http://www.kinderhilfswerk.de
Kinderinitiative in Bad Orb e.V.,Postfach,14 45,63614,Bad Orb,06052 2812,ki@kinderinitiative-badorb.de,http://www.kinderinitiative-badorb.de/
Kinderstube KalleWirsch e.V.,Rathenauplatz,14,65203,Wiesbaden,0611 694052,wibi_kallewirsch@gmx.de,http:///www.kinderstube-kallewirsch.de
Kindertagesstätte Kleine Leute e.V.,Browerstr.,1,36039,Fulda,0661 58447,team@kleine-leute-fulda.de,http://www.kleine-leute-fulda.de/
Kindertagesstätte Sonnenkäfer e.V.,Rabensteiner Str.,7,63667,Nidda Borsdorf,06043 6885,info@kita-sonnenkaefer.de,http://www.kita-sonnenkaefer.de
Kindertagesstätten Villa Kunterbunt e.V.,Schubertstr.,32,35392,Gießen,0641 792533,info@villa-kunterbunt-giessen.de,http://www.villa-kunterbunt-giessen.de/
Kindertreff e.V.,Hauptstr.,38,64668,Rimbach,06253 86197,kindertreff-zotzenbach@web.de,
Kinderzentrum Weisser Stein Marburg-Wehrda e.V.,Magdeburger Str.,1a,35041,Marburg-Wehrda,06421 303210,info@kize-weisser-stein.de,http://www.kize-weisser-stein.de/
Kleine Schritte - Große Sprünge Kinderhaus e.V.,Lindenstr.,4,34379,Calden,05674 9234304,ksgskinderhausev@googlemail .com,http://www.kinderhaus-calden.de
Kneipp-Bund Landesverband Hessen e.V. Geschäftsstelle,Brückenauer Str.,31,36381,Schlüchtern,06661 918561,info@kneipp-lv-hessen.de,http://www.kneipp-lv-hessen.de
KOMM Ambulante Dienste e.V.,Am Eisernen Schlag,27-29,60431,Frankfurt,069 9514750,info@kommev.de,http://www.kommev.de/
KOMPASS - Verein zur Förderung der Jugendhilfe Waldeck-Frankenberg e.V.,Violinenstr.,7,34497,Korbach,05631 937370,kompass-korbach@gmx.de,http://www.kompass-korbach.de
Kompass Leben e.V.,Pestalozzistr.,1,36358,Herbstein,06643 91853-4,k.diehl@bhvb.de,http://www.bhvb.de/
KompassO,Friedrich Ebert Straße,52,34117,Kassel,0561 7396207,betreuungsverein@kompasso.de,http://www.kompasso.de
Kompetenzzentrum muslimischer Frauen e.V.,Rebstöcker Str.,103,60362,Frankfurt,0172 6602355,muslimakompetenz@gmail.com,
KONTAKT Freie Alten- u. Krankenpflege e.V.,Leibnitzstr.,5,60316,Frankfurt,069 439160,info@altenhilfe-kontakt.de,http://www.altenhilfe-kontakt.de/
KONTAKT Soziale Dienste e.V. - Haus der Senioren -,Frankfurter Str.,12,65428,Rüsselsheim,06142 54265,kontakt-soziale-dienste@web.de,
Kooperation Frauen e.V.,Emilstraße,10,64289,Darmstadt,06151 711336,Kooperation.Frauen@t-online.de,http://www.kooperation-frauen.de/
kopfstand. e.V.,Lenaustraße,7,34125,Kassel,,info@kopfstand.org,www.kopfstand.org
Krabbelstube KIDS Dreieich e.V.,Wilhelmstr.,3,63303,Dreieich,06103 371190,info@krabbelstube-kids-dreieich.de,http://www.krabbelstube-kids-dreieich.de/
KREISEL – Familienzentrum e.V.,Am Mühlwege,6 a,34497,Korbach,05631 98100,kreisel.e.V@web.de,http://www.kreisel-ev.de
Kreisverband der Treffpunkte e.V.,Siegener Str.,7,35066,Frankenberg,06451 7180530,kreisverband@treffpunkte-wa-fkb.de,http://www.treffpunkte-waldeck-frankenberg.de/
KroKi-Haus gemeinnützige GmbH,Rödgener Str.,59-61,35394,Gießen,0641/94836720,kroki-haus@web.de,
KuBuS e.V.,Am Kröckelbach,,64658,Fürth/Kröckelbach,06253 807300,thomas.jungfleisch@kubus-kroeckelbach.de,http://www.kubus-kroeckelbach.de/
Kultur für ALLE e.V.,Braubachstr.,10,60311,Frankfurt am Main,069 97761470,kulturfueralle@kulturpass.net,http://www.kulturpass.net
KulturLeben Hochtaunus - Verein für kulturelle Teilhabe e.V.,Ferdinandstr.,5,61348,Bad Homburg,06172 1383310,info@kulturleben-hochtaunus.de,http://www.kulturleben-hochtaunus.de
KulturTicket Lahn-Dill e.V.,Ernst-Leitz-Str.,30,35578,Wetzlar,06441 995091,info@kulturticket-lahn-dill.de,http://www.kulturticket-lahndill.de
Kulturzentrum Schlachthof gemeinnützige GmbH,Mombachstr.,10-12,34127,Kassel,0561 9835010,c.knueppel@schlachthof-kassel.de,http://www.schlachthof-kassel.de
Kulturzentrum Schlachthof e.V.,Mombachstr.,12,34127,Kassel,0561 983500,info@schlachthof-kassel.de,http://www.schlachthof-kassel.de/
Kunstverein International Migration Museum e.V.,Schneckenhofstr.,29,60596,Frankfurt,069 97528175,info@i-m-m.org,www.i-m-m.org
Kunstwerkstatt Kassel e.V.,Heckerstr.,30,34121,Kassel,0561 22466,weinberg@kunstwerkstatt-kassel.org,http://www.kunstwerkstatt-kassel.org
Lahor e.V.,Diemelstr.,9,60486,Frankfurt,069 63198000,info@lahor.eu,http://www.lahor.de/
Landesarbeitsgemeinschaft Freier Ambulanter Dienste in Hessen e.V.,Am Erlengraben,12a,35037,Marburg,06421 1696760,info@lagfad-hessen.de,http://www.lagfad-hessen.de/
Landesarbeitsgemeinschaft KitaEltern Hessen e.V.,Südanlage,21C,35390,Gießen,0641 20109415,info@kita-eltern-hessen.de,www.kita-eltern-hessen.de
Landesarbeitsgemeinschaft Mädchenpolitik in Hessen e.V.,Eschersheimer Landstr.,534,60433,Frankfurt,,lag.maedchenpolitik-hessen@web.de,http://www.lag-maedchenpolitik-hessen.de
Landesverband der Kehlkopfoperierten Hessen e.V.,Am Bünberg,20,36179,Bebra,,,
Landesverband der Natur- und Waldkindergärten Hessen e.V.,Bahnhofstr.,36,36533,Lahnau,06441 63441,gisela.stoll-krohn@waldkindergarten-hessen.de,www.waldkindergarten-hessen.de/
Landesverband für Körper- und Mehrfachbehinderte Hessen e.V.,Adenauer Allee,18,61440,Oberursel,06171 74091,info@lvkm-hessen.de,http://www.lvkm-hessen.de/
Landesverband Hessen der Angehörigen psychisch Kranker e.V.,Am Grenzgraben,4,63067,Offenbach,069 883004,edith.mayer@alice-dsl.de,http://www.angehoerige-hessen.de
Landesverband Hessen der Stotterer-Selbsthilfe e.V.,Franz-Dietz-Straße,23,61440,Oberursel,06171 79490,info@stottern-hessen.de,http://www.stottern-hessen.de/
Landesverband Hessen Legasthenie und Dyskalkulie Hessen im Bundesverband Legasthenie und Dyskalkulie e...,Thoma-Str.,5,61440,Oberursel,01573 4728640,s.behrent@lvl-hessen.de,http://www.lvl-hessen.de/
Landesverband Psychiatrie-Erfahrene Hessen e.V.,Scheidertalstr.,52,65232,Taunusstein,06441 4428754,p-welter@gmx.de,http://www.lvpeh.de
"LAWINE e.V., Beratungs- und Präventionsstelle gegen sexuelle Gewalt",Chemnitzer Str.,20,63452,Hanau,06181 256602,info@lawine-ev.de,http://www.lawine-ev.de/
Lazarus-Dienst gemeinnützige GmbH,Nacker Weg,9,34281,Gudensberg,05603 9114979,info@lazarus-dienst.de,http://www.lazarus-dienst.de
LEADERSHIP RHEIN-MAIN - Netzwerk auf Augenhöhe gemeinnützige UG (haftungsbeschränkt),Burgerstr.,10,61476,Kronberg,,LS@leadership-rm.de,
Leben am Weinberg e.V.,Am Weinberg,4,36358,Herbstein,06647 1239,info@leben-am-weinberg.de,
Leben mit Krebs Marburg e.V.,Alte Bahnhofstr.,31b,35096,Weimar/Lahn,06421 162625,beratungsstelle@lebenmitkrebs-marburg.de,http://www.lebenmitkrebs-marburg.de/
Leben und Altwerden in Mardorf und Umgebung e.V.,Marburger Straße,12,35287,Amöneburg,06429 826626,buergerhilfe-amoeneburg@t-online.de,
Lebens- und Arbeitskreis Hausen e.V.,Schlossweg,4,36280,Oberaula,06628 773750,hofgut.hausen@t-online.de,http://www.lebens-und-arbeitskreis-hausen.de/
Lebensabendbewegung Landesverband Hessen e.V.,Karlstr.,27,65185,Wiesbaden,0611 300497,lab-wiesbaden@arcor.de,http://www.lab-wiesbaden.de
"Lebensgemeinschaft Bingenheim e.V. Heim, Schule und Werkstätten für Seelenpflege-bedürftige Menschen",Schloßstr.,9,61209,Echzell,06035 810,kontakt@lebensgemeinschaft-bingenheim.de,http://www.lg-bingenheim.de/
LebensGestaltung e.V.,Nordstr.,88,63450,Hanau,06181 9283-0,kontakt@lebensgestaltung.de,http://www.lebensgestaltung.de/
Lebenshilfe Dillenburg e.V.,Am Forstdenkmal,7,35683,Dillenburg,02771 9090,info@lebenshilfe-dillenburg.de,http://www.lebenshilfe-dillenburg.de
"Lebenshilfe e.V., Kreisvereinigung Untertaunus",Taunusstr.,30,65326,Aarbergen,06120 9055-90,m.bopp@lebenshilfe-untertaunus.de,http://www.lebenshilfe-untertaunus.de/
Lebenshilfe Frankenberg/Eder e.V.,Bremer Str.,4,35066,Frankenberg,06451 4085387,info@lebenshilfe-frankenberg.de,http://www.lebenshilfe-frankenberg.de/
Lebenshilfe Frankfurt am Main e.V.,Friedrich-Wilhelm-von-Steuben Str.,2,60487,Frankfurt,069 174892-500,info@lebenshilfe-ffm.de,http://www.lebenshilfe-ffm.de/
Lebenshilfe für Menschen mit Behinderung Stadt und Kreis Offenbach e.V.,Brunnenstr.,3,63179,Obertshausen,06104 7805909,info@lebenshilfe-offenbach.de,www.lebenshilfe-offenbach.de
Lebenshilfe für Menschen mit geistiger Behinderung Kreisvereinigung Fulda-Hünfeld e.V.,St. Vizenz-Str.,70,36041,Fulda,0661 21577,info@lebenshilfe-fulda.de,http://www.lebenshilfe-fulda.de/
Lebenshilfe für Menschen mit geistiger Behinderung Kassel e.V.,Goethestr.,25,34119,Kassel,0561 18000,info@lebenshilfe-kassel.de,http://www.lebenshilfe-kassel.de/
"Lebenshilfe für Menschen mit geistiger Behinderung, Kreisvereinigung Groß-Gerau e.V.",Walburgastr.,5,64521,Groß-Gerau,06152 638009,bormann@lebenshilfe-kv-gg.de,http://www.lebenshilfe-kv-gg.de/
Lebenshilfe Gießen e.V.,Grüninger Weg,29,35415,Pohlheim,06404 80440,info@lebenshilfe-giessen.de,http://www.lebenshilfe-giessen.de/
Lebenshilfe Landesverband Hessen e.V.,Raiffeisenstr.,18,35043,Marburg,06421 9484020,info@lebenshilfe-hessen.de,http://www.lebenshilfehessen.de/
Lebenshilfe Limburg gemeinnützige GmbH,Wiesbadener Str.,15,65549,Limburg,06431 9930,info@lebenshilfe-ldz.de,http://www.lebenshilfe-limburg.de/
Lebenshilfe Main-Kinzig gGmbH,Vor der Kaserne,6,63571,Gelnhausen,06051 9218684,schroeck.joachim@lebenshilfe-ggmbh.de,
Lebenshilfe Region Kassel gemeinnützige GmbH,Goethestr.,25,34119,Kassel,0561 18000,info@lebenshilfe-rks.de,http://www.lebenshilfe-rks.de
Lebenshilfe Wetterau e.V.,Hauptstr.,29,61169,Friedberg,06031 68456100,info@lebenshilfe-wetterau.de,http://www.lebenshilfe-wetterau.de
Lebenshilfe Wetzlar-Weilburg e.V.,Friedenstr.,26,35578,Wetzlar,06441 92770,info@lhww.de,http://www.lhww.de/
Lebenshilfe Wiesbaden e.V. Betreuung und Förderung behinderter Menschen,Albert-Schweitzer-Allee,48,65203,Wiesbaden,0611 690750,kontakt@lebenshilfe-wiesbaden.de,http://www.lebenshilfe-wiesbaden.de/
Lebenshilfe-Werk Kreis Waldeck-Frankenberg e.V.,Am Stege,4,34497,Korbach,05631 50060,info@lhw-wf.de,www.lhw-wf.de
Lebensqualität e.V.,Schlierbacher Str.,54,37235,Hessisch Lichtenau,05602 9190290,info@lequa.de,http://www.lequa.de/
Lebensraum Rheingau-Taunus e.V.,Schwalbacher Str.,41,65343,Eltville,06123 7907010,gf@verein-lebensraum.de,http://www.verein-lebensraum.de
Lernkiste Verein zur Förderungvon Kultur und Bildung e.V.,Marktstr.,7,35390,Gießen,0641 38044,info@lernkiste.net,http://www.lernkiste.net/
Lernmobil Viernheim - Verein für pädagogische und soziale Bildungsarbeit e.V.,Friedrich-Ebert-Str.,8,68519,Viernheim,06204 740251,lernmobil@lernmobil-viernheim.de,http://www.lernmobil-viernheim.de/
Lesben- und Schwulenverband Deutschland Landesverband Hessen e.V. (LSVD-Hessen),Postfach,17 03 41,60077,Frankfurt am Main,069 94549616,hessen@lsvd.de,http://www.lsvd.de/
Lesben-Informations- und Beratungsstelle e.V.,Alte Gasse,38,60313,Frankfurt am Main,069 282883,info@libs.w4w.net,http://www.w4w.net
Lichtblick - Verein für Jugend- und Sozialhilfe Wetterau e.V.,Södeler Straße,11,61231,Bad Nauheim,06032 937420,info@lichtblick-wetterau.de,http://www.lichtblick-wetterau.de/
Lindenhof gemeinnützige GmbH Wohngruppe für Mädchen,Marbacher Str.,1,36088,Hünfeld,06652 747667,lindenhofggmbh@gmx.de,
"LLL-Zentrum für Kommunikation, Kultur, Bildung, Beratung und Lebenshilfe e.V.",Klingerstr.,6,60313,Frankfurt,069 293044,LLLInfo@gmx.de,http://www.lll-frankfurt.de
Loheland-Stiftung,Loheland,1,36093,Künzell-Loheland,0661 3920,info@loheland.de,http://www.loheland.de/
Mäander individuelle Jugendhilfe gemeinnützige GmbH,Dieburger Straße,10-12,64287,Darmstadt,06151 9818508,die-Maeander-GmbH@t-online.de,http://www.maeander-darmstadt.de
MÄANDER Mädchenbetreuung in anderen Erziehungsformen e.V.,Helfmannstr.,63a,64293,Darmstadt,06151 893103,maeander-darmstadt@t-online.de,http://www.maeander-darmstadt.de/
Mach-Mit e. V.,Fritzlarer Str.,26a,34281,Gudensberg,05603 927626 0,info@machmit-gudensberg.eu,http://www.machmit-gudensberg.eu
MädchenbüroMilena e. V.,Rödelheimer Landstr.,13,60487,Frankfurt am Main,069 774040,info@maedchenbueromilena.de,http://www.fluechtlingscafemilena.de/
Magnolya e.V. Heiner-Lehr-Zentrum,Ober Ramstädter Str.,96,64367,Mühltal,06151 6691633,magnolya.ev@googlemail.com,
Mainkrokodile e.V.,Diesterwegstr.,18a,60594,Frankfurt,069 6090960,kinderhaus@mainkrokodile.de,http://www.mainkrokodile.de/
Maisha e.V.,Neue Kräme,32,60311,Frankfurt,069 9043 4905,maisha-african-women@gmx.de,www.maisha.org
Marburger Altenhilfe St. Jakob gemeinnützige GmbH,Sudetenstr.,24,35039,Marburg,06421 95190,info@marburger-altenhilfe.de,http://www.marburger-altenhilfe.de/
Marburger Eltern-Kind-Verein e.V.,Bei St. Jost,9,35039,Marburg,06421 13123,mietz@eltern-kind-verein.de,http://www.eltern-kind-verein.de
Marburger Verein für Selbstbestimmung und Betreuung e.V.,Am Grün,16,35037,Marburg,06421 1664650,info@sub-mr.de,http://www.sub-mr.de
Marburger Waldkindergarten e.V. Vorstand,Oberweg,60,35041,Marburg,06421 805262,info@marburger-waldkindergarten.de,http://www.waldkindergarten-marburg.de/
Marie von Boschan-Aschrott-Altersheim-Stiftung,Friedrich-Ebert-Str.,178,34119,Kassel,0561 937640,info@aschrottheim.de,http://www.aschrottheim.de/
Max & Moritz e.V. -Förderverein-,Chauvignystr.,17,65366,Geisenheim,06722 406108,info@ambulantejugendhilfe.de,
MAZ - Mütter-Aktions-Zentrum e.V. im Südkreis Groß-Gerau,Odenwaldring,33,64589,Stockstadt/Rh.,06158 878680,info@m-a-z.org,http://www.muetter-aktions-zentrum.de/
Medienblitz - Verein zur Förderung der Medienkompetenz e.V.,Wahlershäuser Str.,54,34130,Kassel,0561 3165454,medien@susanne-holbein.de,http://www.susanne-holbein.de
"Menetekel, Förderverein akzeptierende Drogenhilfe und betreute Wohnformen e.V.",Gagernstr.,1 a,64283,Darmstadt,06151 1540100 oder 06151 1526555 (AB),info@menetekel-ev.de,http://www.menetekel-ev.de/
Mensch mach mit! e. V.,Mainzer-Tor-Anlage,4,61169,Friedberg,06031 6726827,klaus.schumacher@mensch-mach-mit.de,http://www.mensch-mach-mit.de
Menschenskinder - Werkstatt für Familienkultur e.V.,Siemensstr.,3a,64289,Darmstadt,06151 3604595,info@menschenskinder-darmstadt.de,http://www.menschenskinder-darmstadt.de
MezzoMezzo - Verein für geschlechtsbezogene Kinder- und Jugendarbeit e.V.,Am Industriehof,7-9,60487,Frankfurt,069 704272,info@mezzomezzo.net,http://www.mezzomezzo.net/
MigraMundi e.V.,Friedrichstr.,32,65185,Wiesbaden,0611 97150872,s.prada@migramundi.de,http://www.migramundi.de
Migrantinnenverein Frankfurt e.V.,Rudolfstr.,13,60327,Frankfurt,,zehay@arcor.de,
Minikindergarten Kuckucksnest e.V.,Schlesische Str.,1,63584,Gründau,06051 12743,lasloschuett@t-online.de,
Missionshaus EBEN-EZER - Heim für Heimatlose e.V.,Im Eichwäldchen,23,64668,Rimbach-Mitlechtern,06253 6431,hannes.motsch@t-online.de,www.missionshausebenezer.de
Miteinander - Füreinander Oberes Fuldatal e.V.,Schulstr.,3,36157,Ebersburg,06656 98216,info@mit-und-fuer.de,http://www.mit-und-fuer.de
Miteinander Leben und Lernen e.V.,Paul-Natorp-Str.,9-11,35043,Marburg-Cappel,06421 948190,,
Mittendrin für Alle e. V.,Schinnwasen,1,35794,Mengerskirchen,,,
mittendrin leben Werk-Hilfe e.V.,Schachter Str.,18-20,34379,Calden,05674 99820,info@werk-hilfe.de,
Mu-Ki-Va Treffpunkt für Frau und Familie e.V. (Mütterzentrum),Rendeler Str.,48,60385,Frankfurt,069 447460,info@mukiva.de,http://www.mukiva.de/
Müfaz. Das Mütter&Familienzentrum e.V.,Friedberger Str.,10,61231,Bad Nauheim,06032 31233,info@muefaz.de,http://www.muefaz.de/
Muskelkranke e.V. Hessen,Obere Zeil,4,61440,Oberursel/Ts.,06171 590950,hjw@wohlleben.de,http://www.muskelkranke-hessen.de/
Mütter- und Familienzentrum Lorsch e.V.,Schulstr.,25,64653,Lorsch,06251 587369,info@muetze-lorsch.de,http://www.muetze-lorsch.de/
"Mutter-und-Kind-Café - Treffpunkt für Mütter, Väter und Kinder e.V.",Ludwigstr.,58,63263,Neu-Isenburg,06102 23535,Info@mutterkindcafe.de,http://www.mutterkindcafe.de
Mütterzentrum Langen e.V.,Zimmerstr.,3,63225,Langen,06103 53344,muetterzentrum@zenja-langen.de,http://www.muetterzentrum-langen.de/
Mütterzentrum Marburg e.V.,Bunsenstr.,9,35037,Marburg,06421 24102,muetterzentrum.Marburg@web.de,http://www.muetterzentrum-marburg.de/
Mütterzentrum Seligenstadt e.V.,Berliner Str.,11,63500,Seligenstadt,06182 6407383,vorstand_weibernest@web.de,
MüZe - Mütter- und Familienzentrum Karben e.V.,Berliner Str.,12,61184,Karben,06034 50 98 97 4,info@mueze-karben.de,http://www.mueze-karben.de
Nachbarschaftshaus Wiesbaden e.V.,Postfach,12 05 08,65203,Wiesbaden,0611 967210,info@nachbarschaftshaus-wiesbaden.de,http://www.nachbarschaftshaus-wiesbaden.de/
Nachbarschaftsheim Darmstadt e.V.,Heidelberger Str.,56,64285,Darmstadt,06151 63278,info@nbh-darmstadt.de,http://www.nbh-darmstadt.de/
"Nachbarschaftshilfe Bornheim, Beratungs-, Schul- und Werkhaus e.V.",Petterweilstr.,4-6,60385,Frankfurt,069 4980305,info@nachbarschaftshilfe-bornheim.de,http://www.nachbarschaftshilfe-bornheim.de/
Nachbarschaftszentrum Ginnheim e. V.,Ginnheimer Hohl,14H,60431,Frankfurt am Main,069 50356679,info@nbz-ginnheim.de,http://www.nbz-ginnheim.de
Naturkindergarten Holzhausen UG (haftungsbeschränkt),Am Lindenring,6,35112,Fronhausen,06426 9667440,waldkindergarten-holzhausen@posteo.de,
Neo e.V.,Giessener Str.,13,35043,Marburg,,neo.ev@gmx.de,
Netzwerk für Flüchtlinge Rödermark e.V.,Mühlengrund,17,63322,Rödermark,06074 61649,NetzwerkIntegrationRoedermark@t-online.de,http://www.netzwerk-integration-roedermark.de/
Netzwerk für Teilhabe und Beratung - NTB e.V.,Auf der Weide,1,35037,Marburg,06424 5499,vorstand@netzwerk-teilhabe.de,www.teilhabeberatung.de
Neue Hoffnung e.V.,Hauptstr.,70-72,65375,Oestrich-Winkel,06723 999333,vorstand@neue-hoffnung-sh.org,http://www.neue-hoffnung-sh.org
Neue Wohnraumhilfe gemeinnützige Gesellschaft mit beschränkter Haftung,Elisabeth-Selbert-Str.,26,64289,Darmstadt,06151 780770,kontakt@neue-wohnraumhilfe.de,http://www.neue-wohnraumhilfe.de
Neuorientierung und Selbstfindung e.V.,Postfach,900351,60443,Frankfurt,,nus-ev@mail.de,www.nus-ev.de
Neuro-medizinisches Institut e.V. c/o Sekretariat Dr. M. Gross,Niederräder Landstr.,54,60528,Frankfurt,069 6787244,,
NICK gemeinnützige GmbH,Vogelsbergstr.,212,63679,Schotten,06044 60090,kromm@schotten-sozial.de,
Nordstadtverein e.V.,Reichenberger Str.,9,35396,Gießen,0641 96997880,stadtteilmanagement@nordstadtverein-giessen.org,http://www.nordstadtverein-giessen.org
Notdienst für Mütter/Väter e.V.,Mittelstr.,4,64572,Büttelborn,,reception@villa-epting.de,
Odenwälder Frauenhaus e.V.,Postfach,12 01,64702,Erbach/Odenwald,06062 5646,info@frauenhaus-erbach.de,
Odenwälder Verein für Bildungs- und Kulturarbeit e.V.,Lindenstr.,14,64720,Michelstadt,06061 72946,lernstubb@t-online.de,http://www.lernstubb-odenwald.de/
Offenbacher Arbeitsgruppe Wildhof e.V. Suchthilfezentrum Wildhof,Löwenstr.,4-8,63065,Offenbach,069 98195310,vorstand@shz-wildhof.de,http://www.shz-wildhof.de/
Opfer- und Zeugenhilfe Kassel e.V.,Wilhelmshöher Allee,101,34121,Kassel,0561 282070,info@kasseler-hilfe.de,http://www.kasseler-hilfe.de/
Outlaw Kassel gemeinnützige Gesellschaft für Kinder- und Jugendhilfe mbH,Holländische Str.,208,34127,Kassel,0561 983530,info@outlaw-kassel.de,http://www.outlaw-kassel.de
Pädagogisch-Therapeutische Wohngruppen Schumann-Held GmbH,Am Borngarten,6,36277,Schenklengsfeld-Wüstfeld,06629 808479,Ptw@Ptw-Hef.de,
Pädagogische Ideenwerkstatt Darmstadt e.V.,Soderstr.,16,64283,Darmstadt,06151 7875507,nurcanyapar@hotmail.de,
Pädagogische Initiative e.V. c/o Schiller-Schule,Müllerstr.,11-13,64289,Darmstadt,06151 997908,ingeborg.scharf@pi-darmstadt.de,
"Pädagogische Perspektiven e.V.  -  Hilfe bei Erziehungs-, Bildungs- und Integrationsprozessen e.V.",Franseckystr.,2,65346,Eltville am Rhein (Erbach),06722 9949681,mail@paed-perspektiven.de,http://www.paed-perspektiven.de
Pädagogisches Bildungswerk e.V.,Oppenheimer Ldstr.,55,60596,Frankfurt am Main,069 15043210,info@pbw-rheinmain.de,http://www.pbw-rheinmain.de
Palliativ- und Hospiznetz Hofgeismar e.V.,Liebenauer Str.,1,34369,Hofgeismar,05671 6090964,kontakt@palliativ-hospiznetz-hofgeismar.de,http://www.palliativ-hospiznetz-hofgeismar.de
PARITÄTISCHE Projekte gemeinnützige Gesellschaft mbH,Auf der Körnerwiese,5,60322,Frankfurt am Main,069 9552620,info@paritaet-projekte.org,http://www.paritaet-projekte.org/
Paritätischer Betreuungsverein Darmstadt e.V.,Poststr.,9,64293,Darmstadt,06151 851592,paribv@t-online.de,
Paritätischer Betreuungsverein Frankfurt am Main e.V.,Fischerfeldstraße,7-11,60311,Frankfurt,069 21995673,betreuungsverein@pbv-frankfurt.de,
Paritätisches Bildungswerk Hessen e. V.,Heinrich-Hoffmann-Str.,3,60528,Frankfurt am Main,069 67728101,info@pbhessen.de,http://www.pbhessen.de
Partner für psychisch Kranke im Landkreis Kassel e.V.,Theodor-Heuss-Str.,15,34260,Kaufungen,05605 946710,partner-psz-kaufungen@t-online.de,
Patienteninitiative Kassel e.V.,Wilhelmshöher Allee,261,34131,Kassel,0561 68782,info@patienteninitiative-kassel.de,http://www.patienteninitiative-kassel.de/
Perspektive Russland e.V.,Hainer Hof,1,60311,Frankfurt am Main,069 13886840,perspektive-russland@t-online.de,http://www.russlandhilfe.de/
PERSPEKTIVEN gemeinnützige GmbH c/o Perspektiven e.V.,Alberusstr.,5,61440,Oberursel,06171 503990,schueller-ostermann@perspektivenev.de,
"PERSPEKTIVEN, psychosozialer Verein zur Förderung von Wohn-, Arbeits- und Freizeitinitiativen e.V.",Alberusstr.,5,61440,Oberursel,06171 503990,info@perspektivenev.de,http://www.perspektivenev.de/
Perspektivwechsel e.V.,Bäckerweg,11,60316,Frankfurt,069 436766,info@perspektivwechsel.org,http://www.perspektivwechsel.org/
PFAD für Kinder PFlege- und ADoptivfamilien im Hochtaunuskreis e.V.,Lindenstr.,2a,61440,Oberursel,06171 580353,pfad-htk@t-online.de,
"PFAD, Interessengemeinschaft für Pflege- und Adoptivfamilien, Werra-Meißner-Kreis, Kassel Stadt und Land e...",Hellmut-von-Gerlach-Str.,18,34121,Kassel,05651 23780,info@pfad-wmk-kassel.de,
"Pflege, Hilfe und Betreuung e.V.",Bahnhofstr.,1,34369,Hofgeismar,05671 6470,info@phb-ev.de,http://www.phb-ev.de/
Philip Julius - Verein zur Förderung mehrfach schwerstbehinderter Menschen und ihrer Familien e.V.,Kirchstraße,1,61118,Bad Vilbel-Gronau,,info@philip-julius.de,www.philip-julius.de
Philippstiftung e.V. Fachklinik für Lungenerkrankungen,Robert-Koch-Str.,3,34376,Immenhausen,05673 5010,b.boehling@lungenfachklinik-immenhausen.de,http://www.lungenfachklinik-immenhausen.de/
piAno e.V.,Neue Fahrt,2,34117,Kassel,0561 70001750,info@piano-kassel.de,http://www.piano-kassel.de
Ponydrome Kassel Therapeutisches Reiten e.V.,Lange Str.,93,34131,Kassel,0561 16958,c.boenigk@web.de,http://www.ponydrome.de/
Praunheimer Werkstätten gemeinnützige Gesellschaft mit beschränkter Haftung,Christa-Maar-Straße,2,60488,Frankfurt,069 95 10 355 - 22,geschaeftsstelle@pw-ffm.de,http://www.pw-ffm.de/
"pro familia - Deutsche Gesellschaft für Familienplanung, Sexualpädagogik + Sexualberatung e.V.",Vor dem Kanaltor,3,63450,Hanau,06181 21854,hanau@profamilia.de,http://www.profamilia.de
"Pro Familia Deutsche Gesellschaft für Familienplanung, Sexualpädagogik und Sexualberatung e.V., Kreisverband Offenbach",Paul-Ehrlich-Str.,5,63128,Dietzenbach,06074 2265,dietzenbach@profamilia.de,http://www.profamilia.de/outputdb/30Details/30/453
"Pro Familia Deutsche Gesellschaft für Familienplanung, Sexualpädagogik und Sexualberatung e.V., Ortsverband Schlüchtern",Unter den Linden,15,36381,Schlüchtern,06661 2071,schluechtern@profamilia.de,http://www.profamilia.de/hessen/schluechtern
"pro familia deutsche Gesellschaft für Familienplanung, Sexualpädagogik und Sexualberatung e.V. Kreisverband Vogelsberg",Ludwigsplatz,4,36304,Alsfeld,06631 6207,alsfeld@profamilia.de,http://www.profamilia.de/outputdb/32Alsfeld/32/449
"Pro Familia Deutsche Gesellschaft für Familienplanung, Sexualpädagogikund Sexualberatung e.V.,Ortsverband Fulda e...",Heinrichstr.,35,36037,Fulda,0661 48049690,fulda@profamilia.de,http://www.profamilia.de/hessen/fulda
"Pro Familia, Deutsche Gesellschaft für Familienplanung, Sexualpädagogik und Sexualberatung Kreisverband Hochtaunus e...",Dr. Fuchs-Str.,5,61381,Friedrichsdorf,06172 74951,friedrichsdorf@profamilia.de,http://www.profamilia.de/outputdb/32Beratungsstellen/32/459
"Pro Familia, Deutsche Gesellschaft für Familienplanung, Sexualpädagogik und Sexualberatung Ortsverband Marburg e...",Frankfurter Str.,66,35037,Marburg,06421 21800,renate.reddemann@profamilia.de,http://www.profamilia.de/outputdb/32Marburg/32/467
"Pro Familia, Deutsche Gesellschaft für Familienplanung, Sexualpädagogik und Sexualberatung e.V., Ortsverband Wiesbaden",Langgasse,3,65183,Wiesbaden,0611 376516,cornelia.mertins-baumbach@profamilia.de,http://www.profamilia.de/outputdb/32Wiesbaden/32/471
"Pro Familia, Deutsche Gesellschaft für Familienplanung, Sexualpädagogik und Sexualberatung, Landesverband Hessen e...",Palmengartenstr.,14,60325,Frankfurt,069 447061,lv.hessen@profamilia.de,http://www.profamilia.de/outputdb/30Details/30/447
"Pro Familia, Deutsche Gesellschaft für Familienplanung, Sexualpädagogik und Sexualberatung, Ortsverband Frankfurt am Main e...",Palmengartenstr.,14,60325,Frankfurt,069 90744744,frankfurt-main@profamilia.de,http://www.profamilia.de/frankfurt-main
"Pro Familia, Deutsche Gesellschaft für Sexualberatung, Sexualpädagogik und Familienplanung e.V. Kreisverein Kassel Stadt und Land",Breitscheidstr.,7,34119,Kassel,0561 76619250,kassel@profamilia.de,http://www.profamilia.de/kassel
"pro familia, Deutsche Gesellschaft für  Familienplanung, Sexualpädagogik  und Sexualberatung e.V.  Kreisverband Groß-Gerau",Lahnstr.,30,65428,Rüsselsheim,06142 12142,andrea.guerke@profamilia.de,http://www.profamilia.de/outputdb/32R_uesselsheim/32/588
"pro familia, Deutsche Gesellschaft für Familienplanung, Sexualpädagogik und Sexualberatung e.V. Bezirksverband Darmstadt-Bensheim",Landgraf-Georg-Str.,120,64287,Darmstadt,06251 68191,darmstadt@profamilia.de,http://www.profamilia.de/darmstadt
"pro familia, Deutsche Gesellschaft für Familienplanung, Sexualpädagogik und Sexualberatung e.V. Ortsverband Offenbach/Main",Domstr.,43,63067,Offenbach,069 8509680-0,offenbach@profamilia.de,
"pro familia, Deutsche Gesellschaft für Familienplanung, Sexualpädagogik und Sexualberatung, Ortsverband Gießen e...",Liebigstr.,9,35390,Gießen,0641 77122,giessen@profamilia.de,http://www.profamilia.de/outputdb/32Gie_szen/32/462
PRO INKLUSIO - Gemeinnützige Gesellschaft für soziale und berufliche Teilhabe mbH,Emil-von-Behring-Str.,4,60439,Frankfurt am Main,069 95808-0,info@pro-inklusio.org,http://www.pro-inklusio.org
pro liberi Mittelhessen gemeinnützige GmbH,Grüninger Weg,29,35415,Pohlheim,06404 804239,u.seifert@proLiberi.de,http://www.proliberi.de
PROFILE gemeinnützige Gesellschaft mit beschränkter Haftung,Rooseveltstr.,9,35394,Gießen,0641 5592610,andreas.bein@profile-ggmbh.de,http://www.profile-ggmbh.de/
ProFund e.V. c/o Der PARITÄTISCHE Regionalgeschäftsstelle Offenbach,Frankfurter Str.,48,63065,Offenbach,069 80106500,kontakt@profundev.de,http://www.profundev.de/
Projekt-Lebensbogen e. V.,Auf dem Dörnberg,13,34289,Zierenberg,05606 5639079,judith.vds@projekt-lebensbogen.de,www.lebensbogen.org
Projektgruppe Bahnhofsviertel e.V. Hilfe für Menschen in seelischer Not,Gutleutstraße,121,60327,Frankfurt,069 766579,team@teestube-Jona.de,http://www.Teestube-Jona.de
Projektgruppe Margaretenhütte e.V. (PGM),Henriette-Fürth-Str.,24,35398,Gießen,0641 77324,buero@margaretenhuette.de,http://www.margaretenhuette.de
PsychNet Kassel e.V.,Kölnische Str.,54a,34117,Kassel,,,
Psychosoziale Arbeit Breitenau e.V.,Postfach,1210,34300,Guxhagen,05681 932720,peterligniez@t-online.de,
Psychosozialer Förderkreis Schlüchtern e.V.,Dreibrüderstr.,12,36381,Schlüchtern,06661 73920-50,info@psz-rosengarten.de,http://www.psz-rosengarten.de/
Psychosozialer Hilfsverein Heppenheim e.V.,Darmstädter Str.,23-25,64646,Heppenheim,06252 78421,info@psh-heppenheim.de,http://www.psh-heppenheim.de/
Psychosoziales Zentrum SEN GmbH,Rotenburger Str.,14,34212,Melsungen,05661 920631,verwaltung@psz-schwalm-eder-nord.de,http://www.psz-schwalm-eder-nord.de
Queer-Hanau e. V.,Alfred-Delp-Str.,10,63450,Hanau,,vorstand@queer-hanau.de,http://www.Queer-Hanau.de
QUIT-Suchtberatung und Prävention e.V.,Friedrichsplatz,2-3,34117,Kassel,0561 2079832,info@quit-beratung.de,http://www.quit-beratung.de
Rambazotti – internationaler Kinder- und Jugendcircus e.V.,Ludwig-Erhard-Str.,21,34131,Kassel,0561 44440,info@rambazotti.de,http://www.circus-rambazotti.de/
Rasselbande e.V. Verein zur Unterstützung der Kleinkindererziehung,Brandenburger Str.,5,34131,Kassel,0561 311490,raba-kassel@gmx.de,http://www.rasselbande-kassel.de/
RaSt e.V.,Fleckenbühl,6,35091,Cölbe,06427 9221117,r.meyer@rast-ev.de,http://www.rationales-selbsthilfe-training.de/
Regionale Arbeitsgemeinschaft der Selbsthilfegruppen Main-Kinzig e.V.,Bahnhofstr.,12,63571,Gelnhausen,06051 4162,sekos-gelnhausen@t-online.de,http://www.sekos-gelnhausen.de/
Reinheimer Bürgergemeinschaft für Behinderte e.V.,Kirchstr.,24,64354,Reinheim,06162 82443,buergergem@outlook.de,
RequiSiT e.V.,An der Urbahnsmühle,1,65795,Hattersheim,06190 888119,info@theater-requisit.de,http://www.theater-requisit.de
RheinMainBildung gGmbH,Neebstr.,3,60385,Frankfurt,069 4800059-0,info@rheinmainbildung.de,http://www.rheinmainbildung.de
Rheuma-Liga Hessen e.V.,Dornhofstr.,18,63263,Neu-Isenburg,06102 8109750,info@rheuma-liga-hessen.de,http://www.rheuma-liga-hessen.de
Rosenhofstiftung in Linden,Dresdener Str.,28,35440,Linden,0160 7059000,Rosenhofstiftung-Linden@gmx.de,
Rudolf Steiner Institut für Sozialpädagogik Kassel e.V.,Wilhelmshöher Allee,261,34131,Kassel,0561 9308830,info@steiner-institut.de,http://www.steiner-institut.de
Rumi imPuls e.V.,Offenbacher Landstr.,440b,60599,Frankfurt,,info@rumi-impuls.de,www.rumi-impuls.de
RUNDUM Gesellschaft für häusliche Alten- und Krankenpflege gemeinnützige GmbH,Annastr.,11,34119,Kassel,0561 712690,kontakt@rundum-assistenz.de,http://www.rundum-assistenz.de
Rüsselsheimer Kunst- und Kulturverein e. V.,Neckarstr.,2a,65428,Rüsselsheim,0173 3761246,refiyesahan@rumi-ev.de,www.rumi-ev.de
Sanitätsverein Neu-Isenburg 1861 e.V.,Schützenstr.,61,63263,Neu-Isenburg,06102 22250,info@pflegedienst-ni.de,http://www.pflegedienst-ni.de
Schilasmühle UG (haftungsbeschränkt),Kreuzerhohl,13,60439,Frankfurt,069 58030949,info@schilasmuehle.de,www.schilasmuehle.de
Selbsthilfe  e.V.,Sonnemannstr.,3,60314,Frankfurt,069 559444,service@selbsthilfe-frankfurt.net,http://www.selbsthilfe-frankfurt.net/
Selbsthilfe Körperbehinderter Hanau/Gelnhausen e.V.,Am Rathaus,65b,63526,Erlensee,06183 91520,verein@selbsthilfe-erlensee.de,http://www.selbsthilfe-erlensee.de
Selbsthilfe- und Nachbarschaftszentrum Ostend e.V.,Waldschmidtstraße,39,60316,Frankfurt,069 439645,info@nbz-ostend.de,http://www.nbz-ostend.de/
Selbsthilfegruppe - für bewegungsgestörte Kinder und Erwachsene e.V.,Karlstr.,10,37235,Großalmerode/Rommerode,05604 918060,fueralexander@t-online.de,
Selbsthilfeverein für gesunde Lebensstile und Lebenskultur - besser leben e.V.,Rittershausstr.,5,61231,Bad Nauheim,06032 804572,info@besser-leben-eV.de,http://www.besser-leben-ev.de/
Selbsthilfevereinigung für Lippen - Gaumen - Fehlbildungen e.V. - Wolfgang Rosenthal- Gesellschaft -,Hauser Gasse,16,35578,Wetzlar,06441 8973285,wrg@lkg-selbsthilfe.de,www.lkg-selbsthilfe.de
SELF Kassel e.V. - Selbstbestimmt und engagiert Lernen und Fördern in Kassel,Untere Königstr.,46a,34117,Kassel,0561 50349252,info@self-kassel.de,http://www.self-kassel.de
Seniorenarbeitskreis Oberlahn e.V. (ehemals SWA),Ringstr.,5,35781,Weilburg,06471 912778,Hero.Buchmann@t-online.de,
Seniorenhilfe e.V.,Viehhof,3,36396,Steinau an der Straße,06663 96060,seniorenhilfe-steinau@t-online.de,httP://www.seniorenhilfe-steinau.de
Seniorenhilfe Eppertshausen e.V.,Feldstr.,3,64859,Eppertshausen,06071 496592,SHE.ev@gmx.de,
Seniorenhilfe Langen e.V.,Zimmerstr.,3,63225,Langen,06103 22504,seniorenhilfe@zenja-langen.de,http://www.seniorenhilfe-langen.de
Seniorenhilfe Obertshausen e.V. (SHO) - Aktiv für Jung und Alt,Grenzstraße,16,63179,Obertshausen,06104 43322,info@seniorenhilfe-obertshausen.de,http://www.seniorenhilfe-obertshausen.de/
Seniorenhilfe Offenbach e.V.,Lämmerspieler Weg,43,63071,Offenbach,069 87876443,isser@seniorenhilfe-offenbach.com,http://www.seniorenhilfe-offenbach.com
Seniorenhilfe Rödermark e.V.,Mühlengrund,17,63322,Rödermark,06074 862606,info@seniorenhilfe-roedermark.de,http://www.seniorenhilfe-roedermark.de
Sesam e.V. Verein zur Realisierung von Ideen junger Menschen in Alltag und Zukunft,Eschebergstr.,23,34128,Kassel,0561 7875148,sesam.kassel@gmx.de,
SFG - Servicegesellschaft für Frankfurt und Grüngürtel gGmbH,Bleichstraße,11,60313,Frankfurt/Main,069 9288486-0,info@sfg-frankfurt.de,http://www.sfg-frankfurt.de
"SHK Service ""gem."" GmbH",Am Rathaus,65b,63526,Erlensee,06183 915217,gmbh@selbsthilfe-erlensee.de,http://www.selbsthilfe-erlensee.de/
SOLVERE gemeinnützige Gesellschaft mit beschränkter Haftung,Stahlstraße,34,65428,Rüsselsheim,06142 3019810,u.boehmer@solvereggmbh.de,http://www.solvereggmbh.de
Sonnenkinder Elterninitiative Handicap e.V.,Wilhelm-Ringelband-Weg,20,64625,Bensheim,06251 936830,buero@sonnenkinder-bergstrasse.de,http://www.sonnenkinder-bergstrasse.de
Sorgentelefon für Kinder und Jugendliche e.V. Kinder und Jugendtelefon,Postfach,900717,60447,Frankfurt am Main,069 70795977,vorstand@kjt-frankfurt.de,http://www.kjt-frankfurt.de/home/
SOS Kinderdorf e.V.,Renatastr.,77,80639,München,089 126060,info@sos-kinderdorf.de,http://www.sos-kinderdorf.de/
Sozial-Pädagogisches Zentrum e.V.,Hügelstr.,69,60433,Frankfurt,069 530930,info@fachseminar-altenpflege.de,
Sozialdienst im freikirchlichen Bund der Gemeinde Gottes e.V.,Bahnhofstr.,6,34278,Gudensberg,05603 93456,walter.berle@sozialdienst-fbgg.de,http://www.sozialdienst-fbgg.de/
Soziale Förderstätten für Behinderte e.V.,Fröbelweg,2,36179,Bebra,06622 409500,aks36266@aol.com,http://www.sfb-ev.de/
Soziale Hilfe e.V.,Kölnische Str.,35,34117,Kassel,0561 7073800,info@soziale-hilfe-kassel.de,http://www.soziale-hilfe-kassel.de/
Soziale Hilfe Marburg e.V.,Molkereistr.,6,35039,Marburg,06421 988490,verwaltung.shm@soziale-hilfe-marburg.de,http://www.soziale-hilfe-marburg.de/
Soziale Hilfsdienste Raunheim e.V.,Gottfried-Keller-Str.,27,65479,Raunheim,06142 942697,kbh@haas-raunheim.de,
Sozialer Friedensdienst Kassel e.V.,Annastr.,11,34119,Kassel,0561 712680,info@sfd-kassel.de,http://www.sfd-kassel.de/
Sozialer therapeutischer Drehpunkt Verein für ambulante soziale therapeutische Beratungs- und Behandlungsdienste mit integrativen Gruppen für Kinder mit und ohne Behinderung e...,Chattenstr.,40 a,65719,Hofheim,06192 309200,info@drehpunkt.org,http://www.drehpunkt.org/
Soziales Netzwerk Kirchhain e. V.,Chemnitzer Str.,1,35274,Kirchhain,06422 8500080,info@soziales-netzwerk-kirc hhain.de,http://www.soziales-netzwerkkirchhain.de
Sozialgruppe Kassel e.V.,Holzmarkt,1,34125,Kassel,0561 9701000,info@sozialgruppe-kassel.de,http://www.sozialgruppe-kassel.de/
SOZIALPSYCHIATRISCHER VEREIN KREIS GROß-GERAU e.V.,Frankfurter Str.,72,64521,Groß-Gerau,06152 6699100,spv@spv-gg.de,http://www.spv-gg.de/
Sozialpsychiatrischer Verein Darmstadt e.V.,Dreibrunnenstraße,11,64287,Darmstadt,06151 2794100,info@sozialpsychiatrischer-verein.de,http://www.sozialpsychiatrischer-verein.de/
Sozialstation Höchst im Odenwald e.V.,Erbacher Str.,84,64739,Höchst,06163 4433,mlindemann@sozialstation-hoechst.de,http://www.sozialstation-hoechst.de/
Sozialtherapeutische Jugendwohngemeinschaft e.V. Jugendhof Pohl-Göns,Bärengasse,16,35510,Pohl-Göns,06033 65271,buero@jugendhof-pohl-goens.de,http://www.jugendhof-pohl-goens.de/
Sozialtherapeutischer Verein Ortenberg - Hilfsfond für psychisch Kranke der Psychiatrischen Klinik Marburg am Ortenberg e...,Rudolf-Bultmann-Str.,8,35039,Marburg,06421 58-64119,Vorstand@sov-ev.de,http://www.sov-ev.de
Sozialtherapie Kassel e.V.,Motzstr.,4,34117,Kassel,0561 2207220,pkern@sozialtherapie-ks.de,http://www.sozialtherapie-ks.de/
Sozialverband VdK Hessen-Thüringen e.V. - Landesgeschäftsstelle -,Gärtnerweg,3,60322,Frankfurt,069 7140020,hessen-thueringen@vdk.de,http://www.vdk.de/
Sozialwerk der Christengemeinschaft Hessen e.V.,Hansteinstr.,1,34121,Kassel,0561 92870,info@albert-kolbe.net,http://www.nikodemuswerk.de/
Sozialwerk der Freien Christengemeinde Darmstadt e.V.,Postfach,1246,64387,Erzhausen,06151 824018,sozialwerk@fcg-darmstadt.de,http://www.fcg-darmstadt.de/
Sozialwerk der Freien Christengemeinde Wiesbaden e.V.,Willi-Juppe-Str.,13,65199,Wiesbaden,0611 451263,Kontakt@Sozialwerk-Wiesbaden.de,http://www.sozialwerk-wiesbaden.de/
Sozialwerk des Verbandes Frankfurter Frauen für Kultur und Bildung e.V.,Saalburgstr.,12,60385,Frankfurt,069 598152,,
Sozialwerk für Hörgeschädigte e.V.,Frankfurter Str.,15-19,65520,Bad Camberg,06434 9320,sozialwerk@freiherr-von-schuetz-schule.de,http://www.freiherr-von-schuetz-schule.de/html/body_sozialwerk.htm
Sozialwerk Hephata e.V. Bad Nauheim,Lindenstr.,18,61231,Bad Nauheim,06032 91040,sozialwerk-hephata@t-online.de,http://www.sozialwerk-hephata.de/
Sozialwerk Main-Taunus e.V.,Heddernheimer Landstr.,144,60439,Frankfurt,069 95822530,gs@smt-frankfurt.de,http://www.smt-frankfurt.de/
spectrum Dienste GmbH,Ockershäuser Allee,17,35037,Marburg,06421 931777,tim@thielicke.net,
spectrum e.V.,Ockershäuser Allee,17,35037,Marburg,06421 931777,angelika.thielicke@googlemail.com,http://www.spectrum-marburg.de/
Spielerei Bergstraße e.V.,Rodensteinstr.,91,64625,Bensheim,06257 944334,vorstand@spielerei-bergstrasse.de,http://www.spielerei-bergstrasse.de/
St. Katharinen- und Weißfrauen Altenhilfe GmbH,Goldbergweg,85,60599,Frankfurt am Main,069 9652230,j.schuelbe@pflege-goldbergweg.de,http://www.stkathweis.de
St. Katharinen- und Weißfrauenstift Stiftung des öffentlichen Rechts,Braubachstr.,15,60311,Frankfurt,069 1568020,info@stkathweis.de,http://www.st-katharinen-und-weissfrauenstift.de/
starthäuschen - innovative Pädagogik gGmbH,Pirazzistr.,15,63067,Offenbach,069 8237860,info@starthaus.org,http://www.starthaus.org
StartKlar gemeinnützige GmbH,Rudolf-Buchheim-Str.,8,35392,Gießen,0641 985442121,kontakt@startklar-giessen.de,
Stiftung Deutsche Landerziehungsheime Hermann Lietz-Schule,Schloß Bieberstein,,36145,Hofbieber,06657 790,bieberstein@lietz-schule.de,http://www.lietz-schulen.de/
Stiftung Frankfurter Schullandheim Wegscheide,Seehofstr.,41,60594,Frankfurt,069 612845,kontakt@wegscheide.org,http://www.schullandheim-wegscheide.de/
Stiftung Lebensräume Offenbach am Main,Ludwigstraße,4,63067,Offenbach,069 8383160,Mieke.Steilberg@lebmail.de,http://www.lebsite.de/
Stiftung Mutter Teresa,Am Opperzer Berg,2,36119,Neuhof,06655 91670,info@mutter-teresa.com,http://www.mutter-teresa.com
Stiftung Praunheimer Werkstätten,Christa-Maar-Str.,2,60488,Frankfurt am Main,069 95802637,stiftung@pw-ffm.de,http://www.pw-ffm.de/stiftung/stiftung.html
Stiftung Soziale Gemeinschaft Riedstadt,Wilhelm-Leuschner-Str.,21,64560,Riedstadt,06158 2579,info@stiftung-riedstadt.de,http://www.stiftung-riedstadt.de/
Streetbolzer e. V.,Untere Karlsstr.,4,34117,Kassel,,info@streetbolzer.com,http://www.streetbolzer.com
Studentenwerk Darmstadt Anstalt des öffentlichen Rechts,Alexanderstr.,4,64283,Darmstadt,06151 162112,stw@studentenwerkdarmstadt.de,http://www.studentenwerkdarmstadt.de/
Studentenwerk Frankfurt am Main Anstalt des öffentlichen Rechts,Bockenheimer Landstr.,133,60325,Frankfurt,069 79823001,info@studentenwerkfrankfurt.de,http://www.studentenwerkfrankfurt.de/
Studentenwerk Gießen Anstalt des öffentlichen Rechts,Otto-Behaghel-Str.,23-27,35394,Gießen,0641 40008102,info@studentenwerk-giessen.de,
Studentenwerk Marburg Anstalt des öffentlichen Rechts,Erlenring,5,35037,Marburg,06421 296111,info@studentenwerk-marburg.de,http://www.studentenwerk-marburg.de/
Studierendenwerk Kassel Anstalt des öffentlichen Rechts,Postfach,10 36 60,34036,Kassel,0561 8042550,sozdienst@studentenwerk.uni-kassel.de,http://www.studentenwerk-kassel.de/
Suchthilfe Fulda e.V.,Rhönstr.,12,36037,Fulda,0661 3801713,mvk@suchthilfe-fulda.de,
Suchthilfe Wetzlar e.V.,Sophienstr.,7,35576,Wetzlar,06441 210290,mail@suchthilfe-wetzlar.de,http://www.suchthilfe-wetzlar.de
Suchthilfezentrum Gießen e.V.,Schanzenstr.,16,35390,Gießen,0641 78027,info@shz-giessen.de,http://www.shz-giessen.de
SzenenWechsel Frauen- und Familienzentrum e.V.,Hauptstr,15,64342,Seeheim-Jugenheim,06257 86633,office@szenenwechsel-online.de,http://www.szenenwechsel-online.de/
Tagesmütter_Kassel e.V.,Brüder-Grimm-Str.,56a,34134,Kassel,0561 45231,info@tam-kassel.de,http://www.tam-kassel.de
TagesSatz e.V.,Westring,69,34127,Kassel,0561 8615843,tagessatz.ev@aol.com,http://www.tagessatz.de
Tagträume e.V.,Fritz-Erler-Str.,5,63073,Offenbach-Bieber,069 897944,tagtraeume_ev@t-online.de,
TASIMU e.V.,Am Schäfersberg,46,65527,Niedernhausen,06127 79353,k.mallmann@tasimu.de,http://www.tasimu.de/
Tatzelwurm e.V.,Ortsstr.,56,64646,Heppenheim,06252 965120,tatzelwurm.kindergarten@gmx.de,http://home.arcor.de/tatzelwurm-kiga/
Tausendfüßler e.V. - Der Familienverein,Seligenstädter Str.,34,63179,Obertshausen,06104 71852,info@tausendfuessler-obertshausen.de,http://www.tausendfuessler-obertshausen.de
TD-A TrotzDem-Aktiv - Gemeinnützige Unternehmergesellschaft (haftungsbeschränkt),An der Grünhohl,9,60437,Frankfurt,,trotzdem-aktiv.hs@t-online.de,
Terra Tech Förderprojekte e.V.,Zeppelinstraße,29,35039,Marburg,06421 9995990,info@terratech-ngo.de,http://www.terratech-ngo.de/
Trägerverein Psychosoziales Zentrum für Geflüchtete Nordhessen e.V.,Treppenstr.,4,34117,Kassel,0561 28762623,info@pzg-nordhessen.de,www.pzg-nordhessen.de/
Trägerverein Rosa Raupe e.V.,Gagernring,1b,65779,Kelkheim,06195/902632,info@rosaraupe.de,http://www.rosaraupe.de/
Treffpunkt e.V.,Hufelandstr.,12,34537,Bad Wildungen,05621 96580,badwildungen@treffpunkte-wa-fkb.de,
Treffpunkt e.V. Frankenberg,Hainstr.,51,35066,Frankenberg,06451 72430,frankenberg@treffpunkte-wa-fkb.de,http://www.treffpunkte-waldeck-frankenberg.de/
Treffpunkt e.V. Korbach,Flechtdorfer Str.,11,34497,Korbach,05631 506900,korbach@treffpunkte-wa-fkb.de,http://www.treffpunkte-waldeck-frankenberg.de
Trockendock e.V.,Straßheimer Str.,37,61169,Friedberg,06031 684330,info@rdw-wetterau.de,http://www.rdw-wetterau.de/
trong Kids - Verein für Gewalt- & Kriminalprävention e.V.,Gagernring,55,65779,Kelkheim,,info@coolstrongkids.com,www.coolstrongkids.de/
Tuntonia e.V.,c/o BdWi Marburg e.V. Gisselberger Straße,7,35037,Marburg,06421 360933,info@tuntonia.info,http://www.tuntonia.info
Türkisches Volkshaus Frankfurt e.V.,Werrastr.,29,60486,Frankfurt,069 253208,volkshaus-frankfurt@t-online.de,http://www.halkevi.org/
Väteraufbruch für Kinder Marburg (VAfK) e.V.,Erlenring,20,35039,Marburg,0642164471,vafk.marburg@t-online.de,www.marburg.vaeteraufbruch.de
"Väteraufbruch für Kinder, Kreisverein Frankfurt am Main e.V. (VAfK)",Herzogstr.,1a,60528,Frankfurt am Main,069 944192,frankfurt@vafk.de,http://www.vaeterbruch.de
Vätergruppe Kassel e.V.,Postfach,410240,34064,Kassel,0561 526237,info@vaetergruppe-kassel.de,http://www.vaetergruppe-kassel.de
VEF Mini Kids e.V.,Carl-Zeiss-Straße,49,63322,Rödermark,06074 922156,info@vef-minikids.de,http://www.vef-minikids.de/
Verband alleinerziehender Mütter und Väter Landesverband Hessen e.V.,Adalbertstr.,15/17,60486,Frankfurt,069 97981879,info@vamv-hessen.de,http://www.vamv-hessen.de
Verband alleinerziehender Mütter Väter (VAMV) Ortsverband Frankfurt am Main e.V.,Adalbertstr.,15/17,60486,Frankfurt,069 97981884,vamv_frankfurt@hotmail.com,http://www.vamv-frankfurt.de
Verband binationaler Familien und Partnerschaften - iaf e.V.,Ludolfusstr.,2-4,60487,Frankfurt,069 7137560,info@verband-binationaler.de,http://www.verband-binationaler.de/
Verband Hörgeschädigter Kassel e.V.,Leuschnerstr.,40,34134,Kassel,0561 12316,info@schwerhoerigenverein-kassel.de,http://www.schwerhoerigenverein-kassel.de
Verbund Plus Gemeinnützige GmbH,Querallee,1,34119,Kassel,0561 9789730,gs@verbund-kassel.de,http://www.verbundplus.de
Verbund sozialpädagogischer Kleingruppen e.V.,Querallee,1,34119,Kassel,0561 9789730,geschaeftsfuehrung@verbund-kassel.de,http://www.verbund-kassel.de/
"Verein Ambulante Hilfen im Alltag, AHA e.V.",Kölnische Straße,99,34119,Kassel,0561 5061650,info@ahaev.de,http://www.ahaev.de/
Verein Arbeits- und Erziehungshilfe e.V.,Karlsruher Str.,9,60329,Frankfurt,069 272160,vae@vae-ev.de,http://www.vae-ev.de/
"Verein der Freunde und Förderer der Friedrich von Bodelschwingh-Schule, Schule für Körperbehinderte Wiesbaden e...",Pörtschacher Str.,12,65187,Wiesbaden,,mail@katja-moritz.de,http://www.vffb-wiesbaden.de/
Verein der Freunde und Förderer der Schule für Körperbehinderte in Langen e.V. c/o Erich-Kästner-Schule,Zimmerstr.,70,63225,Langen,,info@eks-langen.de,
Verein der Freunde und Förderer der Wollenbergschule Wetter e.V.,Weinstr.,9,35083,Wetter,06423 9414-0,,
Verein Förderung von Jugendwohnmodellen e.V.,Conrad-Weil-Gasse,1,60388,Frankfurt,06109 2851,jwm-bergen@arcor.de,http://www.jugendwohnmodelle.de
Verein für Beratung und Therapie e.V.,Postfach,13 08,35253,Stadtallendorf,06428 1035,Beratung@lok-stadtallendorf.de,http://www.lok-stadtallendorf.de/
Verein für Bildung und Beratung e.V.,Krummbogen,3,35039,Marburg,06421 96360,sekretariat@vbb-marburg.de,http://www.arbeit-und-bildung.de/
Verein für Bildung und berufliche Förderung von Mädchen und Frauen e.V.,Alsfelder Str.,9,64289,Darmstadt,06151 669720,info@baff-darmstadt.de,
Verein für demokratische Jugendarbeit und Jugendbildung Main-Taunus e.V.,Rheingaustr.,68,65719,Hofheim/Ts.,06192 37660,Spatzennest@gmx.de,http://www.kinderhaus-spatzennest.de/
Verein für gesunde Lebensstile und Primärprävention - besser leben e.V.,Rittershausstr.,5,61231,Bad Nauheim,06032 804572,Bourdin@besser-leben-ev.de,http://www.besser-leben-ev.de
Verein für Grundschülerbetreuung e.V.,Erzberger Str.,18,68519,Viernheim,06204 9197980,astridpfenning@web.de,
Verein für Hauspflege e.V.,Saalbaustr.,28,64283,Darmstadt,06151 26680,mail@vereinfuerhauspflege.de,http://www.vereinfuerhauspflege.de/
Verein für heilende Erziehung Marburg e.V.,Rudolf-Breitscheid-Str.,22,35037,Marburg,06421 33772,info@verein-fuer-heilende-erziehung.de,http://www.bettina-von-arnim-schule.de/
Verein für heilende Erziehung und Therapie auf der Grundlage anthroposophischer Menschenkunde e.V.,Marxstr.,22,61440,Oberursel,06171 57490,info@albrecht-strohschein-schule.de,http://www.albrecht-strohschein-schule.de/
Verein für individuelle Erziehungshilfen e.V.,Am Schloßpark,141,65203,Wiesbaden,0611 9600256,info@vie-ev.de,http://www.vie-ev.de/
Verein für Jugendhilfe e.V. Nidda,Abellstr.,5,63667,Nidda,06043 986700,geschaeftsstelle@jugendhilfe-nidda.de,http://www.jugendhilfe-nidda.de/
"Verein für Kinderbetreuung ""Franz von Hahn"" e.V.",Marburger Str.,129,35396,Gießen,0641 9718031,info@kindergruppe-giessen.de,http://www.kindergruppe-giessen.de/
Verein für Kindererziehung-Kinderland e.V.,Katzenbach,22,35398,Gießen-Klein-Linden,0641 202850,info@kinderland-giessen.de,http://www.kinderland-giessen.de
Verein für Kinderhauserziehung e.V.,Darmstädter Str.,269,64625,Bensheim,06251 789690,l.mueller-wimmer@vfk-ggs.de,http://www.vfk-ggs.de/
Verein für klassische Montessori-Pädagogik e.V.,Korbacher Str.,215,34132,Kassel,0561 6027820,chris.e.schwarz@web.de,
Verein für Körper- und Mehrfachbehinderte im Schwalm-Eder-Kreis e.V.,Kasseler Str.,39a,34212,Melsungen,05661 2421,,
Verein für Körper- und Mehrfachbehinderte Main-Kinzig e.V.,Kasseler Str.,39,63477,Maintal,05661 70970,,
Verein für Kultur und Bildung e.V.,Hanauer Landstr.,182,60314,Frankfurt,069 94592084,mail@kubi.info,http://www.kubi.info/
"Verein für Ökologie, Gesundheit und Bildung e.V.",Wilhelmstr.,7,34260,Kaufungen,05605 80070,oegb@kommune-niederkaufungen.de,http://www.kommune-niederkaufungen.de/
Verein für Psychosoziale Therapie e.V. VPST,Marktplatz,3,35321,Laubach,06405 5053090,gs-info@vpst-laubach.de,http://www.bz-laubach-gruenberg.de/
"Verein für Psychotherapie, Beratung und Heilpädagogik e.V.",Alexanderstr.,29,60489,Frankfurt,069 7892019,verwaltung@erziehungshilfe-roedelheim.de,http://www.erziehungshilfe-roedelheim.de/
Verein für Selbstbestimmung und Betreuung im Vdk Hessen e.V.,Ostparkstr.,37,60385,Frankfurt,069 4365113,betreuungsverein.frankfurt@vdk.de,http://www.vdk.de/betreuungsverein-hessen/
Verein für Selbstbestimmung und Betreuung Osthessen im Sozialverband VdK Hessen e.V.,Heinrichstr.,58a,36043,Fulda,0661 9019703,betreuungsverein.fulda@vdk.de,
Verein für soziale Arbeit im Stadtteil Kinderwerkstatt Bockenheim e.V.,Falkstr.,72,60487,Frankfurt,069 775565,miteinander@kinderwerkstatt.com,http://www.kinderwerkstatt.com/
Verein für sozialpädagogische Modelle e.V.,Fichardstr.,38,60322,Frankfurt,069 59798141,kontakt@vsm-ev.de,http://www.vsm-ev.de/
Verein für sozialpädagogisches Management e.V.,Hanauer Landstraße,46,63571,Gelnhausen,06185 8999552,V-spm@t-online.de,
Verein für Waldorfpädagogik Starkenburg e.V.,Bergstr.,18,64342,Seeheim-Jugenheim,06257 85210,waldorfkindergarten-seeheim@t-online.de,
Verein Hilfe für Kinder und Erwachsene im Krankenhaus e.V.,c/o Bunter Kreis Kassel,,34125,Kassel,0561 98019714,m.einax-wagner@bunter-kreis-kassel.de,
Verein Jean-Paul-Schule Kassel e.V.,Württemberger Str.,18,34131,Kassel,0561 3162061,info@jean-paul-schule.de,http://www.jean-paul-schule.de
Verein Schullandheim Goethe-Gymnasium e.V.,Friedrich-Ebert-Anlage,24,60325,Frankfurt,069 21233525,,
Verein Soziale Hilfe Darmstadt e.V.,Mathildenplatz,7,64283,Darmstadt,06151 24016,vsh.darmstadt@t-online.de,http://www.haus-ober-ramstadt.de
Verein Spielmobil Rote Rübe e.V.,Bremer Str.,5,34117,Kassel,0561 7392593,info@roteruebe.de,http://www.roteruebe.de/
Verein zum Schutz misshandelter Frauen Frauen helfen Frauen e.V.,Adolfsallee,33,65185,Wiesbaden,0611 51212,info@frauenhelfenfrauen-wiesbaden.de,http://www.frauenhelfenfrauen-wiesbaden.de/
Verein zur Betreuung und Förderung lernbehinderter Schüler e.V.,Vogelsbergstraße,46,64289,Darmstadt,06159 398,roland.kohl-ciocca@gmx.de,
Verein zur Betreuung Volljähriger im Hochtaunuskreis (VBV) e. V.,Kaiser-Friedrich-Promenade,74,61348,Bad Homburg,06172 41041,vbv@b-treu.de,http://www.b-treu.de/
Verein zur Bewegungsförderung (Psychomotorik) e.V.,Barfüßerstr.,1,35032,Marburg,06421 283935,bewfoerd@staff.uni-marburg.de,http://www.psychomotorik-marburg.de/
Verein zur Förderung besserer Lebensqualität für kleine und große Menschen e.V.,Friedrich-Ebert-Str.,171,34119,Kassel,0561 13042,orte-fuer-kinder@live.de,
Verein zur Förderung bewegungs- und sportorientierter Jugendsozialarbeit e.V.,Biegenstr.,40,35037,Marburg,06421 685330,kontakt@bsj-marburg.de,http://www.bsj-marburg.de/
Verein zur Förderung der Autonomie Behinderter e.V.,Samuel-Beckett-Anlage,6,34119,Kassel,0561 728850,info@fab-kassel.de,http://www.fab-kassel.de/
Verein zur Förderung der Inklusion behinderter Menschen e.V. (Abkürzung fib),Am Erlengraben,12 a,35037,Marburg,06421 169670,info@fib-ev-marburg.de,http://www.fib-ev-marburg.de/
Verein zur Förderung der Integration Behinderter Taunus e.V.,Adenauer Allee,18,61440,Oberursel,06171 887150,verwaltung@vzf-taunus.de,http://www.vzf-taunus.de/
Verein zur Förderung der Integration von Menschen mit Behinderung e.V.,Lilienthalstr.,4,35394,Gießen,0641 4801680,kontakt@vfimb.de,http://www.vfimb.de
Verein zur Förderung der Kontakte zwischen Kleinkindern e.V.,Schützenstr.,5,35096,Weimar,06421 1683848,kindergruppe@fliegenpilz-niederweimar.de,http://www.fliegenpilz-niederweimar.de
Verein zur Förderung der selbstständigen Lebensführung Blinder und Sehbehinderter e.V. (Fokus),Ginsterweg,4,35041,Marburg,06421 34270,info@fokus-ev.de,http://www.fokus-ev.de
Verein zur Förderung der Waldorfpädagogik in Limburg/Lahn e.V.,Friedhofsweg,14,65549,Limburg,06431 23988,info@zipfelmuetze-limburg.de,
Verein zur Förderung der Waldorfpädagogik Witzenhausen e.V.,Südbahnhofstr.,28,37213,Witzenhausen,05542 999550,kontakt@waldorfkindergarten-witzenhausen.de,
Verein zur Förderung der Waldorfpädagogik e.V.,Bahnstr.,17,63225,Langen,06103 53695,kontakt@waldorfkindergarten-langen.de,
Verein zur Förderung des Waldorfkindergartens Idstein e.V.,Limburger Str.,79,65510,Idstein,06126 92141,info@waldorfkindergarten-idstein.de,http://www.waldorfkindergarten-idstein.de/
"Verein zur Förderung feministischer Mädchenarbeit, Mädchentreff Wiesbaden e.V.",Römerberg,24,65183,Wiesbaden,0611 51518,info@maedchentreff-wiesbaden.de,http://www.maedchentreff-wiesbaden.de
Verein zur Förderung geistig behinderter Schüler e.V.,Pestalozzistr.,3,36358,Herbstein,06643 8680,buero@hvbs.info,
Verein zur Förderung psychosozialer Kooperation und Koordination im Lahn-Dill-Kreis e.V.,Helgebachstrasse,23,35578,Wetzlar,06441 6713448,Karlu-Kreuzburg@web.de,
Verein zur Förderung selbstbestimmten Lebens behinderter und alter Menschen in der Mainspitze -BASIS e...,Taunusstr.,2,65462,Ginsheim,06144 337950,mail@basis-ev.com,http://www.familienentlastender-dienst.de/
Verein zur Förderung von Menschen mit Behinderungen Darmstadt e.V.,Dieburger Str.,77,64380,Roßdorf,06154 69960,info@bhz-rossdorf.de,http://www.bhz-rossdorf.de/
Verein zur Pflege der Waldorfpädagogik e.V.,Alt Niederursel,42,60439,Frankfurt,069 5890916,,
Verein zur Pflege der Waldorfpädagogik e.V.,Berkersheimer Weg,91,61118,Bad Vilbel,06101 1654,info@waldorfkindergarten-bad-vilbel.de,http://waldorfkindergarten-bad-vilbel.de
Verein zur Pflege der Waldorfpädagogik e.V.,Ringmauer,16,36110,Schlitz,06642 5295,waldorfhort.schlitz@web.de,
Verein zur Pflege von Mensch und Erde e.V.,An der Kirche,6,36211,Alheim-Oberellenbach,05664 1798,info@kirchhof-oberellenbach.de,http://www.kirchhof-oberellenbach.de/
Verein zur Unterstützung von Mädchen in Not e.V.,Postfach,57 52,65047,Wiesbaden,0611 808088,team@maedchenzuflucht.de,http://www.maedchenzuflucht.de
Vereinigung der Waldorfkindergärten e.V.,Hügelstr.,67,60433,Frankfurt,069 63197313,dietrich.roediger@waldorfkindergarten-hessen.de,www.waldorfkindergaerten-hessen.de
Vereinigung für Interdisziplinäre Frühförderung Landesvereinigung Hessen e.V.,Herzbergstraße,1a,63571,Gelnhausen,,hessen@fruehfoerderung-viff.de,http://www.fruehfoerderung-viff.de
"Versorgungshaus und Wiesenhüttenstift, Stiftung des öffentlichen Rechts",Gravensteiner Platz,3,60435,Frankfurt,069 150510,info@wiesenhuettenstift.de,http://www.wiesenhuettenstift.de/
VES sozialpädagogisches Wohnen e.V.,Dammstr.,39,35390,Gießen,0641 390709,info@ves-giessen.de,http://www.ves-giessen.de
Villa Kunterbunt e.V.,Martinstr.,20,63533,Mainhausen,06182 24563,,www.villa-kunterbunt-mainflingen.de/
VIS e.V. - Verein für Integration und Suchthilfe,Adelheidstr.,3,35781,Weilburg,06471 7047,geschaeftsstelle@judro-limburg.de,http://www.judro-limburg.de/
Vitos Haina gemeinnützige GmbH,Landgraf-Philipp-Platz,3,35114,Haina (Kloster),06456 91200,info@vitos-haina.de,http://www.vitos-haina.de
Vitos Herborn gemeinnützige GmbH,Austr.,40,35745,Herborn,02772 5041515,gf@vitos-herborn.de,http://www.vitos-herborn.de
Vitos Kurhessen gemeinnützige GmbH,Landgraf-Philipp-Str.,9,34308,Bad Emstal,05624 6010311,geschaeftsfuehrung@vitos-kurhessen.de,http://www.vitos-kurhessen.de
Vitos Riedstadt gemeinnützige GmbH,Philippsanlage,101,64560,Riedstadt,06158 183202,peter.mann@vitos-riedstadt.de,http://www.vitos-riedstadt.de
Vitos Teilhabe gemeinnützige GmbH,Postfach,1320,65503,Idstein,06126 23206,edeltraud.kraemer@vitos-kalmenhof.de,http://www.vitos-kalmenhof.de
"VIV-International, Verein für internationale Verständigung und interkulturelles Lernen e.V.",Vogtstr.,41,60322,Frankfurt am Main,069 5963680,info@viv-international.de,http://www.viv-international.de/
WABe e.V.,Laugendorf,9,36103,Flieden,06661 747090,info@wabe-wohnheim.com,http://www.wabe-wohnheim.com/
WABE e.V.,Poppenhusenstr.,12,22305,Hamburg,040 4929396-25,info@wabe-hamburg.de,www.wabe-hamburg.de
WABe gGmbH,Laugendorf,9,36103,Flieden,06661 747090,info@wabe-wohnheim.com,http://www.wabe-wohnheim.com/
Waisenhaus Stiftung des öffentlichen Rechts,Bleichstr.,10,60313,Frankfurt,069 2980030,info@waisenhaus-frankfurt.de,http://www.waisenhaus-frankfurt.de/
Waldhof gGmbH,Außerhalb,30a/Bodenäckerweg,64372,Ober-Ramstadt,06154 6944500,info@waldhof-ggmbh.de,http://www.reiten-waldhof.de
"Waldkindergarten Altenstadt-Rodenbach ""Die Waldfrüchtchen"" e.V.",Postfach,1164,63669,Altenstadt,06047 6332,info@die-waldfruechtchen.de,http://www.die-waldfruechtchen.de
Waldkindergarten Bensheim e.V.,Im Bangert,26,64625,Bensheim,06251 5702148,shirsch@ingenitron.de,http://waldkindergarten-bensheim.de
Waldkindergarten Ebsdorfergrund - Die Waldbienen e.V.,Roßberger Str.,18,35085,Ebsdorfergrund,06424 964685,info@waldkindergarten-ebsdorfergrund.de,http://www.waldkindergarten-ebsdorfergrund.de
Waldkindergarten Gelnhausen e.V.,Bleichstr.,28,63571,Gelnhausen,06051 609300,berit@waldkindergarten-gelnhausen.de,http://www.waldkindergarten-gelnhausen.de/
Waldkindergarten Heppenheim e.V.,In der Wasserschöpp,45,64646,Heppenheim,06252 798977,geschaeftsfuehrung@waldkindergarten-heppenheim.de,http://www.waldkindergarten-heppenheim.de/
Waldkindergarten Laubfrösche Kirchvers e.V.,Pfarrstr.,100d,35102,Lohra,0157 31638639,vorstand@waldkindergarten-kirchvers.com,http://www.waldkindergarten-kirchvers.com
Waldorfkindergarten Gelnhausen e.V.,Herzbachweg,40,63571,Gelnhausen,06051 53261,info@waldorfkindergarten-gelnhausen.de,http://www.waldorfkindergarten-gelnhausen.de/
Waldorfschul- und Kindergartenverein Hanau e.V.,Philippsruher Allee,46,63454,Hanau,06181 26880,buero@waldorfkindergarten-hanau.de,http://www.waldorfkindergarten-hanau.de/
Weitsprung GmbH,Gutenbergstr.,27,35037,Marburg,06421 686832,mail@weitsprung-reisen.de,http://www.weitsprung-reisen.de/
Welcome In! Fulda e.V.,Robert-Kircher-Str.,25,36037,Fulda,,kontakt@welcome-in.org,http://www.welcome-in.org/
"Welle GmbH, Jugend- und Familienhilfe",Fechenheimer Weg,19a,63477,Maintal,06109 769940,welle.ev@t-online.de,http://www.welle-maintal.de/
Werkgemeinschaft e.V.,Adolf-Todt-Str.,12,65203,Wiesbaden,0611 3413040,geschaeftsstelle@werkgemeinschaft-wiesbaden.de,http://www.werkgemeinschaft-wiesbaden.de/
Werkstätten für Behinderte Rhein-Main e.V.,Elsa-Brändström-Allee,15,65428,Rüsselsheim,06142 9320,info@wfb-rhein-main.de,http://www.wfb-rhein-main.de/
wif e.V. - Begegnung & Beratung,Rheinstraße,79,65185,Wiesbaden,0611 1602353,info@wif-zentrum.de,http://www.wif-zentrum.de/
"Wildwasser Darmstadt e.V. Fachberatungsstelle gegen sexualisierte Gewalt für Mädchen, Frauen/Lesben und sie unterstützende Personen",Wilhelminenstr.,19,64283,Darmstadt,06151 28871,info@wildwasser-darmstadt.de,http://www.wildwasser-darmstadt.de/
Wildwasser Frankfurt e.V. Beratungsstelle für Mädchen und Frauen Gegen sexuellen Missbrauch,Böttger Str.,22,60389,Frankfurt am Main,069 95502910,kontakt@wildwasser-frankfurt.de,http://www.wildwasser-frankfurt.de
Wildwasser Gießen gegen den sexuellen Mißbrauch an Mädchen e.V.,Liebigstr.,13,35390,Gießen,0641 76545,info@wildwasser-giessen.de,http://www.wildwasser-giessen.de/
Wildwasser Kreis Groß Gerau e.V.,Darmstädter Str.,101,65428,Rüsselsheim,06142 965760,info@wildwasser.de,http://www.wildwasser.de
Wildwasser Marburg Arbeitsgemeinschaft gegen den sexuelle Mißbrauch an Mädchen e.V.,Wilhelmstr.,40,35037,Marburg,06421 14466,info@wildwasser-marburg.de,http://www.wildwasser-marburg.de/
Wildwasser Wetterau - Verein gegen sexuelle Gewalt an Mädchen und Frauen e.V.,In den Kolonnaden,17,61231,Bad Nauheim,06032 9495760,info@wildwasser-wetterau.de,http://www.wildwasser-wetterau.de/
Wildwasser Wiesbaden e.V. Verein gegen sexuellen Mißbrauch an Mädchen und Frauen,Dostojewskistr.,10,65187,Wiesbaden,0611 808619,info@wildwasser-wiesbaden.de,http://www.wildwasser-wiesbaden.de/
WIR DABEI ! - Durch Akzeptanz Behinderung erfolgreich integrieren e.V.,Egerring,25,69488,Birkenau,06201 8760306,wir.dabei@web.de,http://www.wir-dabei.de
Wissen am Stern - Bildungsinstitut gGmbH,Untere Königsstr.,79,34117,Kassel,0561 70348968,info@wissenamstern.de,www.wissenamstern.de
Wohnen im Inselhof Rüsselsheim e.V.,Konrad-Adenauer-Ring,41-43,65428,Rüsselsheim,06142 35780,Thomas@wohnstaette-inselhof.de,
wohnenbleiben-braunshardt e.V.,Ludwigstr.,45a,64331,Weiterstadt,,wohnenbleiben-braunshardt@gmx.de,http://www.wohnenbleiben-braunshardt.de
Wohngemeinschaft Bergstraße e.V.,Rodensteinstr.,62,64625,Bensheim,06251 2487,thomas.schreck@wg-bergstrasse.de,http://www.wg-bergstrasse.de/
Wohngestein wohnen inklusiv gGmbH,Kölnische Str.,99,34119,Kassel,0561 506165350,Marco.Ferchland@wohngestein.de,
Wohnraumhilfe Bad Hersfeld e.V.,Am Frauenberg,42,36251,Bad Hersfeld,06621 12377,WohnraumhilfeBadHersfeldeV@web.de,
XENIA - Interkulturelle Projekte gGmbH,Steingasse,26,65183,Wiesbaden,0611 2056938,dagmar.hansen@xenia-interkulturell.de,http://www.xenia-interkulturell.de/
your place e.V.,Philipp-Glenz-Str.,4,63683,Ortenberg,06049 1879,yourplace-wetterau@web.de,www.yourplace-wetterau.de
Zentrum für Psychotraumatologie e.V.,Lange Str.,85,34131,Kassel,0561 9219506,traumazentrum@web.de,http://www.psychotraumazentrum-kassel.de/
ZirkuTopia e.V.,Wartekuppe,11,34134,Kassel,0561 8150505,info@zirkutopia.de,http://www.zirkutopia.de/
ZuBaKa gemeinnützige GmbH,Im Prüfling,10,60389,Frankfurt,,f.guggemos@zubaka.de,www.zubaka.de/
Zugpferd e.V.,Lämmerspieler Str.,109,63165,Mühlheim,06108 708678,info@zugpferd-ev.de,http://www.zugpferd-ev.de/
Zuhaus im Alter e.V.,Liebigstr.,2,65428,Rüsselsheim,06142 958170,hilde@ZIAEV.de,http://www.zuhaus-im-alter.de/
Zündholz - Hilfe zur Selbsthilfe e.V.,Tannenbergstr.,2,64342,Seeheim-Jugenheim,06257 690151,info@zuendholz-online.de,http://www.zuendholz-online.de
Zwerg Nase e.V.,Ludwig-Erhard-Str.,100,65199,Wiesbaden,0611 5327660,sabine.schenk@zwerg-nase.de,http://www.zwerg-nase.de/
Zwergenstübchen e.V.,Hahlgartenstraße,2,64331,Weiterstadt,06150 5418911,zwergenstuebchen-weiterstadt@arcor.de,http://www.zwergenstuebchen-weiterstadt.de
